{"type":"FeatureCollection","bbox":[125.598,43.067,125.694,43.138],"features":[{"type":"Feature","id":"node/3464964388","properties":{"place":"town","name":"河源镇"},"geometry":{"type":"Point","coordinates":[125.602292,43.126739]}},{"type":"Feature","id":"node/5583323282","properties":{"place":"hamlet","name":"前三星泉"},"geometry":{"type":"Point","coordinates":[125.660683,43.135424]}},{"type":"Feature","id":"node/5583323339","properties":{"place":"hamlet","name":"王家屯"},"geometry":{"type":"Point","coordinates":[125.674199,43.130539]}},{"type":"Feature","id":"node/5583323340","properties":{"place":"hamlet","name":"一步岭"},"geometry":{"type":"Point","coordinates":[125.685857,43.1256]}},{"type":"Feature","id":"node/5583323341","properties":{"place":"hamlet","name":"小苕条顶子"},"geometry":{"type":"Point","coordinates":[125.66903,43.110856]}},{"type":"Feature","id":"node/5583323342","properties":{"place":"hamlet","name":"大苕条顶子"},"geometry":{"type":"Point","coordinates":[125.682854,43.108214]}},{"type":"Feature","id":"node/5583394506","properties":{"place":"hamlet","name":"双凤堆"},"geometry":{"type":"Point","coordinates":[125.62872,43.124831]}},{"type":"Feature","id":"node/5583841538","properties":{"place":"village","name":"大吉祥"},"geometry":{"type":"Point","coordinates":[125.673571,43.085035]}},{"type":"Feature","id":"node/5583841609","properties":{"place":"hamlet","name":"龙王岗"},"geometry":{"type":"Point","coordinates":[125.688534,43.076495]}},{"type":"Feature","id":"node/5583868656","properties":{"place":"hamlet","name":"小吉祥"},"geometry":{"type":"Point","coordinates":[125.665873,43.076885]}},{"type":"Feature","id":"node/5591304178","properties":{"place":"hamlet","name":"小青顶"},"geometry":{"type":"Point","coordinates":[125.653875,43.067725]}},{"type":"Feature","id":"node/5591304179","properties":{"place":"hamlet","name":"黑石"},"geometry":{"type":"Point","coordinates":[125.626377,43.072131]}},{"type":"Feature","id":"node/5591304180","properties":{"place":"hamlet","name":"石碑岭屯"},"geometry":{"type":"Point","coordinates":[125.601895,43.067332]}},{"type":"Feature","id":"node/5591304181","properties":{"place":"village","name":"大酱缸村"},"geometry":{"type":"Point","coordinates":[125.643001,43.095508]}},{"type":"Feature","id":"node/5591304182","properties":{"place":"hamlet","name":"石头锅腔"},"geometry":{"type":"Point","coordinates":[125.621285,43.106891]}},{"type":"Feature","id":"node/5591304183","properties":{"place":"hamlet","name":"小草皮沟"},"geometry":{"type":"Point","coordinates":[125.603944,43.085784]}},{"type":"Feature","id":"node/5591304185","properties":{"place":"hamlet","name":"小碱厂"},"geometry":{"type":"Point","coordinates":[125.612797,43.136158]}},{"type":"Feature","id":"node/5591336419","properties":{"place":"hamlet","name":"杨木岗"},"geometry":{"type":"Point","coordinates":[125.598753,43.124159]}},{"type":"Feature","id":"node/5591372600","properties":{"place":"village","name":"板石村"},"geometry":{"type":"Point","coordinates":[125.6009,43.128349]}},{"type":"Feature","id":"node/5591373059","properties":{"place":"hamlet","name":"小北沟"},"geometry":{"type":"Point","coordinates":[125.649681,43.112753]}},{"type":"Feature","id":"node/5591693045","properties":{"place":"hamlet","name":"王家屯"},"geometry":{"type":"Point","coordinates":[125.67371,43.130151]}},{"type":"Feature","id":"way/584043760","properties":{"landuse":"residential"},"geometry":{"type":"Polygon","coordinates":[[[125.674974,43.132351],[125.674379,43.131832],[125.673822,43.131804],[125.67338,43.131678],[125.672708,43.131426],[125.672266,43.131089],[125.672304,43.130767],[125.671613,43.130277],[125.67242,43.129814],[125.671786,43.129379],[125.672689,43.128819],[125.673284,43.129141],[125.673802,43.129043],[125.675896,43.130725],[125.675919,43.131665],[125.675499,43.131974],[125.675723,43.1322],[125.674974,43.132351]]]}},{"type":"Feature","id":"way/584043763","properties":{"natural":"water"},"geometry":{"type":"Polygon","coordinates":[[[125.675834,43.132206],[125.676181,43.132103],[125.675863,43.131829],[125.675615,43.131953],[125.675693,43.132077],[125.675834,43.132206]]]}},{"type":"Feature","id":"way/584043765","properties":{"landuse":"residential"},"geometry":{"type":"Polygon","coordinates":[[[125.686775,43.12764],[125.685588,43.127189],[125.684792,43.12707],[125.683946,43.126773],[125.683474,43.126239],[125.683572,43.125361],[125.684287,43.125408],[125.68471,43.125064],[125.685068,43.124043],[125.685718,43.123723],[125.68645,43.122999],[125.686613,43.123058],[125.68671,43.123533],[125.687247,43.123699],[125.687149,43.124506],[125.687735,43.125183],[125.687312,43.125681],[125.687589,43.126049],[125.68728,43.126595],[125.687068,43.127367],[125.686775,43.12764]]]}},{"type":"Feature","id":"way/584043768","properties":{"natural":"water"},"geometry":{"type":"Polygon","coordinates":[[[125.680303,43.118524],[125.679653,43.1185],[125.678986,43.118109],[125.678628,43.118014],[125.678547,43.117693],[125.678449,43.117527],[125.678173,43.11742],[125.677896,43.117207],[125.67788,43.116922],[125.67814,43.116601],[125.678921,43.116839],[125.679279,43.116791],[125.679604,43.116839],[125.679929,43.11685],[125.680141,43.116613],[125.680742,43.116791],[125.680694,43.11723],[125.680303,43.118524]]]}},{"type":"Feature","id":"way/584043771","properties":{"landuse":"residential"},"geometry":{"type":"Polygon","coordinates":[[[125.594993,43.122743],[125.596702,43.12165],[125.59797,43.122421],[125.59868,43.123037],[125.599122,43.122995],[125.599544,43.122477],[125.599948,43.122617],[125.599871,43.122813],[125.600332,43.123037],[125.600101,43.123416],[125.601753,43.124075],[125.602175,43.124327],[125.602886,43.12329],[125.603136,43.122617],[125.603366,43.122589],[125.605229,43.12343],[125.605018,43.124159],[125.606036,43.124747],[125.607207,43.125616],[125.608263,43.125602],[125.609051,43.125869],[125.609493,43.126163],[125.610184,43.125743],[125.611336,43.125757],[125.612565,43.125715],[125.613737,43.125855],[125.614044,43.126233],[125.613967,43.127271],[125.614908,43.127439],[125.614966,43.127635],[125.614217,43.127901],[125.61343,43.127691],[125.612815,43.127747],[125.612085,43.127621],[125.61051,43.127229],[125.610069,43.127355],[125.610184,43.127649],[125.609301,43.127789],[125.608993,43.128084],[125.610011,43.128728],[125.610011,43.12898],[125.609512,43.129261],[125.608667,43.128742],[125.608052,43.128616],[125.607995,43.127831],[125.607342,43.127943],[125.607322,43.128378],[125.606938,43.128504],[125.606458,43.128798],[125.60544,43.12877],[125.605152,43.127705],[125.603961,43.127747],[125.604115,43.128168],[125.602099,43.128154],[125.601638,43.128574],[125.601234,43.129177],[125.601388,43.129639],[125.601215,43.129878],[125.600447,43.129611],[125.599621,43.130396],[125.598622,43.130018],[125.600101,43.12891],[125.600658,43.128336],[125.601426,43.127467],[125.601446,43.127074],[125.600889,43.126822],[125.600773,43.126261],[125.599295,43.125574],[125.595262,43.123444],[125.594993,43.123234],[125.594993,43.122743]]]}},{"type":"Feature","id":"way/584043776","properties":{"natural":"water"},"geometry":{"type":"Polygon","coordinates":[[[125.628306,43.126458],[125.627721,43.12675],[125.627109,43.127152],[125.627618,43.127815],[125.62832,43.128348],[125.628747,43.128398],[125.629201,43.128147],[125.629133,43.127986],[125.628733,43.127705],[125.628802,43.127413],[125.628733,43.127232],[125.628458,43.127062],[125.628747,43.126639],[125.628623,43.126509],[125.628485,43.126449],[125.628306,43.126458]]]}},{"type":"Feature","id":"way/584043779","properties":{"landuse":"residential"},"geometry":{"type":"Polygon","coordinates":[[[125.626489,43.125484],[125.627948,43.125745],[125.628141,43.125866],[125.630028,43.126047],[125.630138,43.125825],[125.630964,43.125886],[125.631294,43.125544],[125.631584,43.125021],[125.631184,43.12473],[125.629697,43.124438],[125.629642,43.124187],[125.628967,43.123936],[125.628706,43.123866],[125.62832,43.123876],[125.628059,43.123494],[125.627604,43.123665],[125.627287,43.124006],[125.627219,43.124398],[125.626737,43.12467],[125.626351,43.125313],[125.626337,43.125454],[125.626489,43.125484]]]}},{"type":"Feature","id":"way/584107378","properties":{"landuse":"residential","name":"小吉祥"},"geometry":{"type":"Polygon","coordinates":[[[125.6643,43.076195],[125.664802,43.07595],[125.665509,43.075684],[125.666478,43.076255],[125.666369,43.076341],[125.666391,43.076372],[125.66672,43.076741],[125.667099,43.077072],[125.667291,43.077147],[125.667597,43.077103],[125.667854,43.077334],[125.666847,43.077853],[125.666663,43.077912],[125.666412,43.077767],[125.66584,43.07807],[125.665682,43.077875],[125.665455,43.077464],[125.665208,43.077298],[125.664379,43.076512],[125.664556,43.076418],[125.6643,43.076195]]]}},{"type":"Feature","id":"way/584107379","properties":{"landuse":"residential"},"geometry":{"type":"Polygon","coordinates":[[[125.675702,43.087617],[125.675327,43.087328],[125.674636,43.087227],[125.674419,43.087054],[125.674399,43.086672],[125.673866,43.08647],[125.673599,43.086333],[125.673086,43.086239],[125.671971,43.085591],[125.671526,43.085518],[125.670845,43.085223],[125.670371,43.084812],[125.670786,43.084271],[125.671062,43.084134],[125.67204,43.084011],[125.671911,43.083752],[125.672899,43.083132],[125.673599,43.083608],[125.673994,43.083442],[125.674488,43.083593],[125.675189,43.083377],[125.675505,43.083766],[125.674942,43.084257],[125.676295,43.085158],[125.676008,43.085316],[125.676186,43.085497],[125.676038,43.085619],[125.676206,43.085843],[125.676551,43.086066],[125.676127,43.086384],[125.676423,43.0866],[125.676028,43.08696],[125.676295,43.087162],[125.675702,43.087617]]]}},{"type":"Feature","id":"way/584107380","properties":{"landuse":"residential"},"geometry":{"type":"Polygon","coordinates":[[[125.692211,43.078124],[125.692445,43.07742],[125.690572,43.077008],[125.691233,43.076696],[125.691605,43.076434],[125.691178,43.076143],[125.69082,43.075841],[125.690269,43.075851],[125.689939,43.075891],[125.689539,43.07568],[125.68852,43.075449],[125.687515,43.075449],[125.68684,43.075559],[125.686551,43.076143],[125.686262,43.076464],[125.686166,43.076726],[125.686414,43.07748],[125.686717,43.07747],[125.68702,43.077681],[125.687543,43.077661],[125.687901,43.07748],[125.688217,43.07748],[125.688493,43.077792],[125.689911,43.077913],[125.690255,43.07747],[125.69093,43.077722],[125.692211,43.078124]]]}},{"type":"Feature","id":"way/584107394","properties":{"natural":"water"},"geometry":{"type":"Polygon","coordinates":[[[125.677142,43.074145],[125.675188,43.074212],[125.675066,43.074123],[125.675066,43.073889],[125.675132,43.073775],[125.675148,43.073478],[125.675203,43.073397],[125.675356,43.073359],[125.675411,43.073074],[125.675498,43.072896],[125.675503,43.072662],[125.675386,43.071999],[125.675488,43.071921],[125.675675,43.071877],[125.675782,43.071899],[125.675807,43.072032],[125.675888,43.07204],[125.676076,43.071965],[125.676756,43.071936],[125.676863,43.071954],[125.676858,43.072151],[125.676766,43.072588],[125.676822,43.072725],[125.676766,43.072848],[125.677036,43.073652],[125.676995,43.073804],[125.677076,43.073886],[125.677066,43.073945],[125.677178,43.074108],[125.677142,43.074145]]]}},{"type":"Feature","id":"way/584107400","properties":{"building":"yes"},"geometry":{"type":"Polygon","coordinates":[[[125.673526,43.072575],[125.673542,43.07302],[125.673273,43.073024],[125.673197,43.073002],[125.673141,43.072546],[125.673516,43.072539],[125.673526,43.072575]]]}},{"type":"Feature","id":"way/584107402","properties":{"building":"yes"},"geometry":{"type":"Polygon","coordinates":[[[125.673633,43.072394],[125.67412,43.072383],[125.67412,43.07249],[125.673638,43.072498],[125.673633,43.072394]]]}},{"type":"Feature","id":"way/584107404","properties":{"building":"yes"},"geometry":{"type":"Polygon","coordinates":[[[125.672935,43.07183],[125.673127,43.072194],[125.673691,43.072162],[125.673681,43.071729],[125.673418,43.071716],[125.672935,43.07183]]]}},{"type":"Feature","id":"way/584107423","properties":{"natural":"water"},"geometry":{"type":"Polygon","coordinates":[[[125.668504,43.071661],[125.667775,43.07153],[125.667687,43.071484],[125.667737,43.071283],[125.66808,43.070934],[125.668326,43.070977],[125.668498,43.071054],[125.66854,43.071102],[125.668581,43.071399],[125.66854,43.071646],[125.668504,43.071661]]]}},{"type":"Feature","id":"way/584107428","properties":{"building":"yes"},"geometry":{"type":"Polygon","coordinates":[[[125.667307,43.071412],[125.666925,43.071239],[125.666849,43.071287],[125.666834,43.071426],[125.667032,43.071492],[125.667041,43.071568],[125.667152,43.071602],[125.667264,43.071583],[125.667335,43.071448],[125.667307,43.071412]]]}},{"type":"Feature","id":"way/584107444","properties":{"building":"yes"},"geometry":{"type":"Polygon","coordinates":[[[125.669641,43.081651],[125.670226,43.081334],[125.6713,43.082199],[125.670722,43.082506],[125.669641,43.081651]]]}},{"type":"Feature","id":"way/584107446","properties":{"building":"yes"},"geometry":{"type":"Polygon","coordinates":[[[125.671391,43.082411],[125.671472,43.082474],[125.671379,43.082527],[125.671292,43.082461],[125.671391,43.082411]]]}},{"type":"Feature","id":"way/585013021","properties":{"landuse":"residential"},"geometry":{"type":"Polygon","coordinates":[[[125.655718,43.067832],[125.655434,43.068248],[125.655157,43.068153],[125.654995,43.068492],[125.654751,43.06845],[125.654531,43.068717],[125.653336,43.068284],[125.653157,43.06851],[125.652677,43.068361],[125.652848,43.068058],[125.652206,43.067821],[125.652417,43.067102],[125.652791,43.067137],[125.653011,43.066757],[125.655125,43.067321],[125.655019,43.067541],[125.6558,43.06769],[125.655718,43.067832]]]}},{"type":"Feature","id":"way/585013022","properties":{"landuse":"residential"},"geometry":{"type":"Polygon","coordinates":[[[125.628894,43.071022],[125.623438,43.07145],[125.623438,43.071788],[125.623097,43.071776],[125.623203,43.072406],[125.623877,43.072709],[125.623788,43.07357],[125.624292,43.073808],[125.62839,43.073546],[125.628309,43.073],[125.629764,43.072863],[125.629512,43.071669],[125.629016,43.071711],[125.628894,43.071022]]]}},{"type":"Feature","id":"way/585013023","properties":{"landuse":"residential"},"geometry":{"type":"Polygon","coordinates":[[[125.598745,43.06803],[125.605981,43.067525],[125.606038,43.067026],[125.59868,43.067347],[125.598745,43.06803]]]}},{"type":"Feature","id":"way/585013024","properties":{"landuse":"residential"},"geometry":{"type":"Polygon","coordinates":[[[125.604363,43.087271],[125.603509,43.087027],[125.603672,43.086701],[125.603453,43.086612],[125.603566,43.086386],[125.602826,43.086119],[125.602891,43.085591],[125.602631,43.085484],[125.602591,43.085133],[125.603469,43.084777],[125.605233,43.084605],[125.605705,43.084854],[125.605875,43.085252],[125.60503,43.085644],[125.605274,43.086386],[125.605119,43.086909],[125.604892,43.087093],[125.604567,43.087004],[125.604363,43.087271]]]}},{"type":"Feature","id":"way/585013025","properties":{"landuse":"residential"},"geometry":{"type":"Polygon","coordinates":[[[125.597899,43.100868],[125.594151,43.100333],[125.59385,43.100975],[125.594175,43.101046],[125.594395,43.100963],[125.594452,43.101806],[125.594834,43.102305],[125.594696,43.102863],[125.594427,43.102839],[125.594305,43.103052],[125.59324,43.10288],[125.593102,43.103308],[125.593175,43.10345],[125.594858,43.10402],[125.596053,43.104246],[125.595907,43.105047],[125.590882,43.103706],[125.590516,43.104305],[125.59098,43.104923],[125.591346,43.105178],[125.593321,43.106068],[125.593118,43.106371],[125.593915,43.106739],[125.593809,43.106994],[125.594565,43.107196],[125.594866,43.106994],[125.59685,43.107362],[125.598013,43.10687],[125.59798,43.106246],[125.596956,43.105445],[125.597338,43.104845],[125.596875,43.104614],[125.59694,43.104454],[125.597476,43.104353],[125.59794,43.103676],[125.597899,43.100868]]]}},{"type":"Feature","id":"way/585013028","properties":{"natural":"water"},"geometry":{"type":"Polygon","coordinates":[[[125.615558,43.067789],[125.615751,43.067683],[125.615778,43.067552],[125.615723,43.067467],[125.614312,43.06712],[125.613761,43.067065],[125.613506,43.06712],[125.613596,43.067422],[125.613837,43.067552],[125.614388,43.067633],[125.614629,43.067588],[125.614918,43.067628],[125.615159,43.067613],[125.615365,43.067743],[125.615558,43.067789]]]}},{"type":"Feature","id":"way/585013031","properties":{"natural":"water"},"geometry":{"type":"Polygon","coordinates":[[[125.639586,43.088965],[125.640473,43.088217],[125.640903,43.087694],[125.640757,43.087629],[125.63992,43.087005],[125.639733,43.086922],[125.638928,43.086797],[125.638594,43.086797],[125.638383,43.08691],[125.638277,43.087071],[125.638277,43.087201],[125.638472,43.087338],[125.638537,43.087647],[125.639001,43.087914],[125.639041,43.088021],[125.638952,43.088151],[125.639082,43.08849],[125.63935,43.088834],[125.639489,43.088935],[125.639586,43.088965]]]}},{"type":"Feature","id":"way/585013032","properties":{"landuse":"residential"},"geometry":{"type":"Polygon","coordinates":[[[125.641796,43.098098],[125.640999,43.097362],[125.640576,43.096913],[125.640317,43.096997],[125.63977,43.096324],[125.640231,43.095889],[125.641201,43.095588],[125.641537,43.094389],[125.641441,43.093786],[125.641229,43.093505],[125.641393,43.093021],[125.641758,43.092874],[125.642132,43.093014],[125.642756,43.092593],[125.643208,43.092208],[125.644187,43.09314],[125.644485,43.093764],[125.645176,43.094157],[125.645071,43.094515],[125.645858,43.094767],[125.645887,43.09509],[125.644994,43.096618],[125.64559,43.096853],[125.645398,43.097134],[125.645042,43.097087],[125.644885,43.09727],[125.644634,43.097381],[125.644349,43.097555],[125.64415,43.097832],[125.64341,43.097726],[125.643025,43.097807],[125.642839,43.097913],[125.642454,43.098015],[125.642279,43.097985],[125.641796,43.098098]]]}},{"type":"Feature","id":"way/585013034","properties":{"landuse":"residential"},"geometry":{"type":"Polygon","coordinates":[[[125.667614,43.11013],[125.66755,43.110441],[125.66776,43.110467],[125.66762,43.110777],[125.668559,43.111105],[125.669054,43.111241],[125.669031,43.11162],[125.669748,43.111709],[125.670232,43.110914],[125.669818,43.110799],[125.669526,43.110603],[125.669064,43.110481],[125.669089,43.11025],[125.668331,43.110147],[125.667614,43.11013]]]}},{"type":"Feature","id":"way/585018045","properties":{"landuse":"residential"},"geometry":{"type":"Polygon","coordinates":[[[125.620615,43.109911],[125.618726,43.109012],[125.617856,43.107809],[125.619758,43.106206],[125.619624,43.105922],[125.620387,43.105003],[125.621753,43.104113],[125.623427,43.104367],[125.624445,43.107125],[125.623173,43.107604],[125.622463,43.107956],[125.621941,43.108455],[125.621285,43.109237],[125.620615,43.109911]]]}},{"type":"Feature","id":"way/585018047","properties":{"landuse":"residential"},"geometry":{"type":"Polygon","coordinates":[[[125.651266,43.111927],[125.649689,43.11188],[125.649656,43.112135],[125.649364,43.112254],[125.648827,43.11223],[125.648786,43.112788],[125.648583,43.112859],[125.648551,43.113132],[125.648827,43.113233],[125.648778,43.113577],[125.649063,43.113595],[125.649209,43.113251],[125.650616,43.113257],[125.650648,43.113108],[125.650478,43.112907],[125.651543,43.112455],[125.651266,43.111927]]]}},{"type":"Feature","id":"way/585018048","properties":{"landuse":"residential"},"geometry":{"type":"Polygon","coordinates":[[[125.682066,43.109493],[125.681676,43.109351],[125.681424,43.109072],[125.680586,43.109131],[125.680408,43.108734],[125.680969,43.108502],[125.680928,43.10814],[125.682774,43.107315],[125.683514,43.107172],[125.683823,43.107523],[125.685067,43.10706],[125.685742,43.107529],[125.685408,43.107772],[125.685319,43.108098],[125.684953,43.108176],[125.684993,43.108751],[125.683579,43.10909],[125.683042,43.109125],[125.682066,43.109493]]]}},{"type":"Feature","id":"way/585018049","properties":{"building":"yes"},"geometry":{"type":"Polygon","coordinates":[[[125.645489,43.112216],[125.646654,43.112753],[125.64719,43.113047],[125.647284,43.113653],[125.647203,43.11466],[125.647056,43.115276],[125.646895,43.116772],[125.647364,43.116811],[125.647525,43.115745],[125.647993,43.115774],[125.647913,43.115373],[125.647552,43.115354],[125.647953,43.113017],[125.645669,43.111589],[125.645489,43.112216]]]}},{"type":"Feature","id":"way/585018052","properties":{"landuse":"residential"},"geometry":{"type":"Polygon","coordinates":[[[125.648717,43.096819],[125.648972,43.097],[125.649075,43.097266],[125.649227,43.097356],[125.648786,43.097724],[125.649488,43.09793],[125.649523,43.098297],[125.649268,43.098563],[125.648786,43.098845],[125.648104,43.098714],[125.647843,43.098804],[125.647753,43.09892],[125.64703,43.099141],[125.646783,43.099136],[125.64617,43.099393],[125.64577,43.099081],[125.646142,43.098845],[125.646129,43.098588],[125.646301,43.098302],[125.645956,43.097995],[125.646053,43.097859],[125.64577,43.097633],[125.646218,43.09705],[125.646638,43.097181],[125.646817,43.097356],[125.647678,43.097663],[125.648249,43.097231],[125.648717,43.096819]]]}},{"type":"Feature","id":"way/585045133","properties":{"natural":"water"},"geometry":{"type":"Polygon","coordinates":[[[125.609306,43.083248],[125.608208,43.082927],[125.608127,43.082791],[125.608241,43.082719],[125.608688,43.082743],[125.609021,43.082511],[125.609379,43.08263],[125.60972,43.082868],[125.609306,43.083248]]]}},{"type":"Feature","id":"way/585045136","properties":{"building":"yes"},"geometry":{"type":"Polygon","coordinates":[[[125.609859,43.082797],[125.609619,43.082622],[125.609763,43.082532],[125.609874,43.082593],[125.609826,43.08265],[125.609943,43.082746],[125.609859,43.082797]]]}},{"type":"Feature","id":"way/585045138","properties":{"natural":"water"},"geometry":{"type":"Polygon","coordinates":[[[125.609115,43.082448],[125.609495,43.082578],[125.609658,43.082397],[125.609386,43.082232],[125.609115,43.082448]]]}},{"type":"Feature","id":"way/585045140","properties":{"natural":"water"},"geometry":{"type":"Polygon","coordinates":[[[125.627571,43.078189],[125.627822,43.077738],[125.628096,43.077836],[125.628213,43.078032],[125.627927,43.078317],[125.627775,43.078304],[125.627542,43.078236],[125.627571,43.078189]]]}},{"type":"Feature","id":"way/585045143","properties":{"natural":"water"},"geometry":{"type":"Polygon","coordinates":[[[125.654578,43.071197],[125.654374,43.071274],[125.654152,43.071253],[125.653937,43.071184],[125.65396,43.071091],[125.653797,43.071048],[125.653826,43.070959],[125.654065,43.070852],[125.654485,43.070759],[125.65477,43.070733],[125.654578,43.071197]]]}},{"type":"Feature","id":"way/585045146","properties":{"natural":"water"},"geometry":{"type":"Polygon","coordinates":[[[125.654141,43.071282],[125.653721,43.0715],[125.653616,43.071449],[125.653692,43.071299],[125.65389,43.071219],[125.654141,43.071282]]]}},{"type":"Feature","id":"way/585045148","properties":{"building":"yes"},"geometry":{"type":"Polygon","coordinates":[[[125.654725,43.071302],[125.654685,43.071391],[125.654399,43.071353],[125.654411,43.071294],[125.654556,43.071255],[125.654708,43.071255],[125.654725,43.071302]]]}},{"type":"Feature","id":"way/585045150","properties":{"natural":"water"},"geometry":{"type":"Polygon","coordinates":[[[125.653035,43.074262],[125.652947,43.07436],[125.652586,43.074292],[125.652265,43.074317],[125.651741,43.074585],[125.651484,43.074432],[125.651945,43.074087],[125.652026,43.073989],[125.652277,43.073921],[125.652738,43.073878],[125.653035,43.074262]]]}},{"type":"Feature","id":"way/585045154","properties":{"natural":"water"},"geometry":{"type":"Polygon","coordinates":[[[125.637347,43.07498],[125.637367,43.075115],[125.637326,43.075176],[125.637161,43.075201],[125.636762,43.07495],[125.636665,43.07495],[125.636548,43.075015],[125.636397,43.07495],[125.636438,43.074864],[125.636548,43.074773],[125.636583,43.074668],[125.636534,43.074371],[125.636658,43.074311],[125.637278,43.07423],[125.637574,43.074215],[125.637712,43.074296],[125.637698,43.074452],[125.637181,43.074532],[125.637078,43.074592],[125.637051,43.074693],[125.637347,43.07498]]]}},{"type":"Feature","id":"way/585048076","properties":{"building":"yes"},"geometry":{"type":"Polygon","coordinates":[[[125.680143,43.115906],[125.680906,43.116025],[125.680814,43.116195],[125.680634,43.116164],[125.680616,43.116121],[125.680094,43.116011],[125.680143,43.115906]]]}},{"type":"Feature","id":"way/585048081","properties":{"landuse":"residential"},"geometry":{"type":"Polygon","coordinates":[[[125.660864,43.13359],[125.661367,43.134195],[125.662019,43.135542],[125.662285,43.136306],[125.662315,43.136889],[125.662512,43.137617],[125.66221,43.137703],[125.661473,43.137708],[125.66097,43.137819],[125.66095,43.137713],[125.660117,43.137733],[125.660206,43.137522],[125.660103,43.136934],[125.659834,43.136778],[125.659738,43.136176],[125.659483,43.135497],[125.659187,43.135347],[125.658361,43.135256],[125.658113,43.135131],[125.657762,43.135131],[125.657638,43.134909],[125.657603,43.134658],[125.658182,43.134704],[125.658581,43.134769],[125.658925,43.134714],[125.658967,43.134608],[125.658905,43.134367],[125.658925,43.134136],[125.659029,43.13397],[125.659504,43.133558],[125.6598,43.133633],[125.660061,43.133814],[125.660864,43.13359]]]}},{"type":"Feature","id":"way/585057790","properties":{"landuse":"residential"},"geometry":{"type":"Polygon","coordinates":[[[125.614595,43.137014],[125.612482,43.136894],[125.611407,43.136901],[125.610638,43.136726],[125.610686,43.136271],[125.610926,43.136124],[125.611157,43.135892],[125.611474,43.135486],[125.612415,43.135437],[125.613442,43.135577],[125.614739,43.136032],[125.614816,43.136509],[125.614729,43.136838],[125.614595,43.137014]]]}},{"type":"Feature","id":"way/585111159","properties":{"landuse":"forest"},"geometry":{"type":"Polygon","coordinates":[[[125.646658,43.083303],[125.64721,43.083644],[125.647611,43.084035],[125.64823,43.084463],[125.648664,43.084817],[125.649684,43.085305],[125.650152,43.085574],[125.650687,43.086001],[125.651925,43.086697],[125.652677,43.08677],[125.652844,43.086404],[125.652894,43.086001],[125.653128,43.085513],[125.653162,43.084902],[125.652894,43.084951],[125.652827,43.085244],[125.65276,43.085012],[125.651741,43.083706],[125.65169,43.083095],[125.652025,43.083156],[125.652727,43.083193],[125.653212,43.083156],[125.653697,43.083351],[125.654165,43.083205],[125.653998,43.082949],[125.653613,43.082484],[125.653546,43.082265],[125.651874,43.081398],[125.651256,43.081043],[125.65052,43.080689],[125.649851,43.080225],[125.650871,43.080482],[125.651557,43.080824],[125.652359,43.08086],[125.653245,43.08075],[125.653914,43.080702],[125.65485,43.079981],[125.655151,43.079676],[125.655486,43.079407],[125.65577,43.078919],[125.655887,43.078613],[125.656322,43.078442],[125.656622,43.07821],[125.656756,43.077844],[125.657475,43.07749],[125.657943,43.076806],[125.658311,43.076037],[125.658529,43.07484],[125.658562,43.074266],[125.658411,43.073386],[125.657592,43.071261],[125.657358,43.070272],[125.657258,43.071164],[125.657358,43.071481],[125.657358,43.071921],[125.657308,43.072299],[125.656622,43.072544],[125.656054,43.073142],[125.65587,43.073277],[125.655385,43.073521],[125.655252,43.074193],[125.654666,43.073264],[125.654332,43.073667],[125.653864,43.073924],[125.653329,43.074132],[125.652861,43.074425],[125.652353,43.0743],[125.651741,43.074585],[125.651484,43.074432],[125.652026,43.073989],[125.652277,43.073921],[125.653162,43.073863],[125.65363,43.073533],[125.654098,43.073325],[125.654466,43.072983],[125.654633,43.072727],[125.655084,43.072471],[125.655536,43.072165],[125.655519,43.071933],[125.654516,43.071677],[125.653914,43.071567],[125.653616,43.071449],[125.653692,43.071299],[125.65389,43.071219],[125.65396,43.071091],[125.653797,43.071048],[125.653826,43.070959],[125.654003,43.07088],[125.654485,43.070759],[125.65477,43.070733],[125.655051,43.070516],[125.654867,43.07026],[125.654382,43.07015],[125.654349,43.070443],[125.653362,43.070675],[125.652878,43.070345],[125.652526,43.070199],[125.652242,43.06993],[125.65256,43.069527],[125.652576,43.06888],[125.652075,43.068061],[125.651623,43.067988],[125.651022,43.068147],[125.650687,43.068452],[125.650604,43.068868],[125.65042,43.068953],[125.650052,43.068733],[125.650019,43.068538],[125.650403,43.068171],[125.650888,43.06789],[125.650871,43.067622],[125.650503,43.067439],[125.649383,43.0675],[125.649166,43.067487],[125.649467,43.067365],[125.650002,43.06728],[125.650353,43.067121],[125.650871,43.067304],[125.651206,43.067353],[125.651557,43.067133],[125.650567,43.06683],[125.648163,43.066634],[125.647827,43.066717],[125.647613,43.067024],[125.647445,43.0674],[125.647217,43.067537],[125.646428,43.06737],[125.645721,43.067507],[125.645404,43.067631],[125.644867,43.067685],[125.645337,43.068184],[125.646273,43.069344],[125.646491,43.069747],[125.646457,43.069967],[125.646507,43.070211],[125.646307,43.070236],[125.64609,43.069454],[125.645822,43.069148],[125.645588,43.068782],[125.64457,43.067763],[125.643923,43.067936],[125.643498,43.068147],[125.642997,43.068255],[125.64258,43.068475],[125.642696,43.068782],[125.642344,43.0691],[125.642344,43.069478],[125.642796,43.069881],[125.643113,43.069722],[125.643648,43.069918],[125.643615,43.070126],[125.643047,43.070321],[125.641626,43.070309],[125.643147,43.070712],[125.643699,43.071029],[125.644551,43.071347],[125.644334,43.071469],[125.643615,43.071127],[125.64293,43.070858],[125.642194,43.070687],[125.641943,43.070834],[125.641659,43.071103],[125.641642,43.071554],[125.641893,43.072019],[125.642261,43.072324],[125.642528,43.072251],[125.643816,43.072434],[125.643782,43.073301],[125.643582,43.072947],[125.643164,43.072678],[125.642578,43.07269],[125.642194,43.073045],[125.642679,43.073521],[125.642729,43.073924],[125.643648,43.073936],[125.643598,43.074119],[125.64303,43.074083],[125.642946,43.074596],[125.643297,43.075634],[125.643448,43.075853],[125.64303,43.075902],[125.642328,43.07407],[125.641977,43.07407],[125.641776,43.073826],[125.641124,43.073936],[125.640823,43.073826],[125.640472,43.073997],[125.640405,43.074339],[125.640087,43.07451],[125.639837,43.07418],[125.639853,43.073875],[125.639619,43.073509],[125.639168,43.073069],[125.639168,43.072739],[125.639251,43.072471],[125.638934,43.072385],[125.638482,43.072324],[125.637797,43.072287],[125.637345,43.072165],[125.637111,43.072507],[125.637078,43.072727],[125.63666,43.0728],[125.636576,43.072507],[125.636927,43.072177],[125.637195,43.071738],[125.637228,43.071384],[125.636777,43.071945],[125.636593,43.07208],[125.636225,43.072116],[125.636175,43.072434],[125.636192,43.072837],[125.636459,43.073032],[125.63681,43.073899],[125.637725,43.074396],[125.637462,43.074583],[125.637078,43.074592],[125.637201,43.074863],[125.637358,43.075053],[125.63768,43.075377],[125.637997,43.075585],[125.637713,43.075756],[125.638064,43.076208],[125.638298,43.076366],[125.637914,43.076379],[125.637814,43.076427],[125.637429,43.075915],[125.637345,43.075719],[125.636927,43.07589],[125.636961,43.075658],[125.637061,43.075389],[125.637047,43.075141],[125.636872,43.075035],[125.636576,43.075194],[125.636526,43.075487],[125.636392,43.07578],[125.636125,43.075963],[125.636309,43.075377],[125.636275,43.075133],[125.636443,43.074571],[125.636376,43.074412],[125.636459,43.074107],[125.636326,43.07396],[125.636175,43.073924],[125.636108,43.073509],[125.636008,43.073179],[125.635623,43.07291],[125.634938,43.073802],[125.634721,43.073704],[125.634553,43.073887],[125.634654,43.074229],[125.634553,43.074706],[125.634938,43.074742],[125.635205,43.074449],[125.635356,43.07451],[125.635423,43.07484],[125.635205,43.075047],[125.635172,43.075243],[125.634921,43.075377],[125.634587,43.075341],[125.634603,43.075121],[125.634722,43.074863],[125.634403,43.074925],[125.634135,43.075035],[125.633651,43.074937],[125.633166,43.075182],[125.633032,43.075573],[125.632631,43.075707],[125.632464,43.075939],[125.632647,43.076281],[125.632447,43.076427],[125.632146,43.076525],[125.632213,43.076745],[125.632698,43.076708],[125.633166,43.076794],[125.633483,43.076965],[125.633266,43.077466],[125.632781,43.077869],[125.632313,43.077807],[125.63214,43.077871],[125.632764,43.078592],[125.632719,43.078923],[125.632741,43.079205],[125.6329,43.079495],[125.633671,43.080472],[125.634329,43.081582],[125.634397,43.082104],[125.634488,43.082352],[125.63677,43.084864],[125.637078,43.084402],[125.63763,43.083962],[125.63763,43.084328],[125.637479,43.084707],[125.637396,43.08511],[125.637947,43.085134],[125.638566,43.085268],[125.638833,43.084939],[125.638934,43.084536],[125.638934,43.084133],[125.639151,43.083608],[125.639134,43.0829],[125.639502,43.082509],[125.639703,43.082179],[125.639486,43.081715],[125.639502,43.081178],[125.639602,43.08075],[125.639803,43.080567],[125.639937,43.080934],[125.640021,43.081446],[125.640238,43.081788],[125.640639,43.082692],[125.64104,43.082497],[125.641308,43.082484],[125.641325,43.082912],[125.641174,43.083205],[125.641274,43.083425],[125.641358,43.083828],[125.640974,43.083986],[125.64094,43.084206],[125.640639,43.084206],[125.640572,43.084414],[125.640856,43.084695],[125.641074,43.084707],[125.64206,43.084927],[125.642144,43.085195],[125.641793,43.085427],[125.641659,43.085659],[125.642127,43.085647],[125.642645,43.085757],[125.642963,43.085867],[125.643364,43.085842],[125.643682,43.085684],[125.644133,43.085623],[125.6441,43.08572],[125.643481,43.086135],[125.643097,43.086221],[125.642461,43.086416],[125.642428,43.086746],[125.64191,43.087173],[125.64191,43.087503],[125.641843,43.087589],[125.642545,43.087503],[125.643364,43.087943],[125.643214,43.088138],[125.643264,43.08826],[125.64308,43.088455],[125.643548,43.08881],[125.643857,43.08887],[125.644468,43.088346],[125.644719,43.088004],[125.644752,43.087649],[125.645187,43.087479],[125.645705,43.087344],[125.645956,43.087564],[125.645872,43.088761],[125.645404,43.08881],[125.644886,43.088761],[125.644468,43.088797],[125.644133,43.088895],[125.644066,43.0892],[125.644234,43.08953],[125.645287,43.089298],[125.645538,43.089383],[125.645822,43.089151],[125.646073,43.088626],[125.646273,43.088651],[125.646524,43.088748],[125.646307,43.08898],[125.646207,43.089261],[125.646725,43.088895],[125.646825,43.088626],[125.64721,43.088455],[125.647561,43.088358],[125.647243,43.088053],[125.647226,43.087918],[125.647611,43.088028],[125.647862,43.088004],[125.648296,43.08837],[125.648781,43.088162],[125.648932,43.087991],[125.648932,43.087772],[125.64828,43.087759],[125.647962,43.087503],[125.648497,43.087271],[125.648698,43.087125],[125.64828,43.086966],[125.647828,43.08688],[125.647611,43.086758],[125.647293,43.086892],[125.647377,43.086416],[125.647828,43.08627],[125.648447,43.086135],[125.648363,43.085952],[125.648062,43.085586],[125.647895,43.08511],[125.647427,43.084634],[125.646859,43.084218],[125.646574,43.08395],[125.646691,43.083791],[125.646491,43.083327],[125.646658,43.083303]]]}},{"type":"Feature","id":"way/585129966","properties":{"natural":"wood"},"geometry":{"type":"Polygon","coordinates":[[[125.642987,43.06778],[125.642289,43.067753],[125.641606,43.067651],[125.641553,43.067397],[125.64166,43.067162],[125.641593,43.067104],[125.641338,43.067377],[125.640722,43.067495],[125.638941,43.067377],[125.638338,43.067191],[125.638606,43.066839],[125.638927,43.066751],[125.639142,43.066653],[125.639517,43.066683],[125.640762,43.066624],[125.64099,43.066536],[125.640923,43.06636],[125.640454,43.06635],[125.640508,43.066262],[125.640736,43.066233],[125.640736,43.066105],[125.640441,43.065929],[125.640253,43.065968],[125.640052,43.066135],[125.640133,43.066272],[125.639932,43.066428],[125.639758,43.066507],[125.639115,43.066409],[125.63866,43.066193],[125.638794,43.066047],[125.638526,43.065802],[125.639088,43.065225],[125.63949,43.065],[125.639677,43.064941],[125.640575,43.064266],[125.640903,43.064778],[125.641065,43.064689],[125.640903,43.064427],[125.640789,43.064142],[125.640927,43.064077],[125.641049,43.064196],[125.641122,43.064214],[125.64122,43.064356],[125.641382,43.064433],[125.641488,43.064606],[125.6417,43.064695],[125.641854,43.064612],[125.64235,43.064475],[125.642456,43.064095],[125.642626,43.064035],[125.64248,43.063899],[125.641976,43.063626],[125.641618,43.06321],[125.641594,43.063115],[125.64183,43.062812],[125.642204,43.062598],[125.642903,43.062354],[125.643342,43.062164],[125.644057,43.062081],[125.644456,43.062099],[125.644683,43.061986],[125.644895,43.061926],[125.64522,43.061915],[125.645611,43.06179],[125.645716,43.061618],[125.645749,43.061237],[125.646009,43.061231],[125.646131,43.061303],[125.646472,43.061261],[125.646789,43.061368],[125.64696,43.061243],[125.647147,43.060928],[125.648351,43.060441],[125.648708,43.060251],[125.648156,43.059557],[125.649139,43.059919],[125.649294,43.059812],[125.649912,43.05958],[125.650343,43.059556],[125.650574,43.058732],[125.650993,43.05958],[125.651229,43.059615],[125.651774,43.059806],[125.652123,43.059871],[125.652676,43.059883],[125.652896,43.060221],[125.65314,43.060786],[125.652945,43.060928],[125.653075,43.061243],[125.653286,43.061249],[125.653213,43.061398],[125.653026,43.061528],[125.652871,43.061534],[125.652953,43.061802],[125.652758,43.061998],[125.65253,43.06201],[125.652432,43.062218],[125.652627,43.062354],[125.653424,43.062532],[125.653473,43.062366],[125.653449,43.06201],[125.653595,43.061903],[125.653896,43.061825],[125.653953,43.062081],[125.653928,43.062253],[125.653798,43.062384],[125.653758,43.062616],[125.653628,43.062728],[125.652636,43.062592],[125.652766,43.062752],[125.65301,43.062806],[125.653335,43.062859],[125.65388,43.062835],[125.653839,43.063014],[125.653262,43.063079],[125.653416,43.063221],[125.65392,43.063269],[125.653993,43.06356],[125.653871,43.063608],[125.653871,43.063798],[125.65379,43.063928],[125.653993,43.064077],[125.654107,43.064279],[125.654189,43.064534],[125.654148,43.064748],[125.653904,43.064891],[125.653676,43.064944],[125.653302,43.06498],[125.653042,43.064956],[125.652343,43.065057],[125.652156,43.064885],[125.651953,43.064915],[125.651717,43.064659],[125.651538,43.064528],[125.65144,43.064356],[125.651351,43.064273],[125.651229,43.064315],[125.651115,43.064695],[125.651196,43.064915],[125.651562,43.065318],[125.651725,43.065437],[125.651879,43.065473],[125.652335,43.065473],[125.652335,43.065633],[125.652693,43.065865],[125.652684,43.065972],[125.652782,43.066061],[125.652636,43.066251],[125.65227,43.066584],[125.652034,43.066667],[125.651603,43.066655],[125.651408,43.06659],[125.651213,43.066489],[125.651026,43.066168],[125.650465,43.065889],[125.650448,43.066114],[125.650521,43.066227],[125.650676,43.066346],[125.65057,43.066596],[125.650603,43.066702],[125.6507,43.066827],[125.650115,43.066738],[125.649213,43.066691],[125.648399,43.066596],[125.648001,43.066596],[125.64779,43.066667],[125.647611,43.066887],[125.647407,43.067344],[125.647228,43.067475],[125.646472,43.06732],[125.646131,43.067326],[125.645366,43.067588],[125.644854,43.067611],[125.644627,43.067665],[125.644464,43.067558],[125.644139,43.067528],[125.643879,43.067463],[125.643586,43.067291],[125.643309,43.06735],[125.643196,43.067617],[125.642987,43.06778]]]}},{"type":"Feature","id":"way/585129967","properties":{"natural":"water"},"geometry":{"type":"Polygon","coordinates":[[[125.614197,43.095096],[125.614855,43.094627],[125.614912,43.094514],[125.614587,43.094324],[125.614351,43.0943],[125.613985,43.094574],[125.613896,43.09468],[125.614002,43.094971],[125.614083,43.095066],[125.614197,43.095096]]]}},{"type":"Feature","id":"way/585136042","properties":{"natural":"water"},"geometry":{"type":"Polygon","coordinates":[[[125.64016,43.093721],[125.640585,43.093707],[125.640688,43.093646],[125.640481,43.093357],[125.640353,43.093253],[125.640037,43.093141],[125.639874,43.093173],[125.639874,43.093249],[125.64016,43.093721]]]}},{"type":"Feature","id":"way/585143554","properties":{"landuse":"forest"},"geometry":{"type":"Polygon","coordinates":[[[125.657036,43.085431],[125.658125,43.085253],[125.658906,43.085027],[125.659702,43.084481],[125.66032,43.084279],[125.660938,43.084671],[125.66154,43.084505],[125.66206,43.084208],[125.66276,43.084184],[125.664093,43.084018],[125.664662,43.083721],[125.666126,43.083091],[125.667232,43.082842],[125.66785,43.082402],[125.668712,43.081714],[125.669443,43.081286],[125.669752,43.080811],[125.669573,43.080573],[125.669264,43.080609],[125.669037,43.080217],[125.668029,43.080288],[125.667492,43.080455],[125.667557,43.080134],[125.668094,43.07992],[125.669069,43.080086],[125.668642,43.079596],[125.668142,43.079647],[125.667443,43.079504],[125.667037,43.079611],[125.666614,43.079873],[125.66637,43.079908],[125.666012,43.079694],[125.664809,43.079908],[125.664614,43.079896],[125.664093,43.079576],[125.664305,43.07935],[125.664841,43.079124],[125.665378,43.078946],[125.665508,43.078483],[125.66528,43.078352],[125.664971,43.078685],[125.664484,43.07872],[125.664077,43.078815],[125.663622,43.078958],[125.66354,43.079112],[125.66341,43.078934],[125.664028,43.078614],[125.66437,43.07853],[125.664874,43.078352],[125.664337,43.07821],[125.663622,43.078174],[125.663361,43.078032],[125.662776,43.078138],[125.662337,43.078305],[125.662239,43.078566],[125.661833,43.078566],[125.662044,43.078352],[125.662402,43.078186],[125.662792,43.077936],[125.663036,43.077628],[125.662727,43.077402],[125.662955,43.077378],[125.663231,43.077141],[125.663183,43.076749],[125.662808,43.076677],[125.662906,43.076416],[125.663768,43.075763],[125.663833,43.075608],[125.663753,43.075373],[125.662942,43.075271],[125.662381,43.075046],[125.661763,43.074988],[125.660611,43.075029],[125.660252,43.074997],[125.659849,43.074919],[125.659484,43.074486],[125.659085,43.074266],[125.65879,43.073949],[125.658601,43.075306],[125.65832,43.076796],[125.657849,43.077533],[125.656954,43.079101],[125.656466,43.079861],[125.656206,43.080419],[125.656044,43.081155],[125.655946,43.082022],[125.656109,43.082723],[125.656499,43.083887],[125.656824,43.085027],[125.657036,43.085431]]]}},{"type":"Feature","id":"way/585143556","properties":{"landuse":"forest"},"geometry":{"type":"Polygon","coordinates":[[[125.656109,43.08903],[125.656352,43.088602],[125.656824,43.088091],[125.656727,43.088056],[125.656499,43.088103],[125.656222,43.087818],[125.656174,43.087593],[125.656297,43.087297],[125.656401,43.087699],[125.656515,43.087771],[125.656889,43.087676],[125.657084,43.087474],[125.65754,43.087355],[125.657914,43.087177],[125.658223,43.086785],[125.658794,43.086527],[125.659251,43.086471],[125.66025,43.086484],[125.661003,43.086381],[125.660727,43.087034],[125.660467,43.087391],[125.661117,43.087153],[125.661556,43.086892],[125.661638,43.086714],[125.661589,43.086488],[125.66128,43.086381],[125.661338,43.0862],[125.661696,43.086112],[125.662004,43.085751],[125.662218,43.08531],[125.662312,43.085206],[125.662727,43.085455],[125.663215,43.085205],[125.663134,43.084814],[125.663869,43.084378],[125.665033,43.083778],[125.665473,43.083438],[125.666464,43.083061],[125.667268,43.082914],[125.668259,43.082209],[125.668942,43.081662],[125.669561,43.081482],[125.669557,43.081761],[125.669037,43.08188],[125.669021,43.082272],[125.668712,43.082414],[125.66889,43.082771],[125.669386,43.082958],[125.669816,43.082897],[125.670494,43.082672],[125.670809,43.082759],[125.671053,43.082913],[125.671785,43.082878],[125.671151,43.083222],[125.670842,43.083578],[125.67037,43.083816],[125.670126,43.084125],[125.670273,43.084398],[125.669915,43.084433],[125.669573,43.084612],[125.669167,43.084671],[125.669199,43.084968],[125.668484,43.085015],[125.667947,43.085217],[125.667557,43.085384],[125.667297,43.085764],[125.666744,43.085716],[125.666451,43.085657],[125.666906,43.085894],[125.666874,43.086167],[125.666191,43.086286],[125.665817,43.086191],[125.665297,43.08631],[125.664841,43.086369],[125.664418,43.086179],[125.664093,43.086096],[125.664337,43.086393],[125.665345,43.087284],[125.665557,43.087355],[125.665801,43.087129],[125.666158,43.086916],[125.666533,43.086773],[125.666728,43.0865],[125.666728,43.086393],[125.667085,43.086096],[125.667541,43.085859],[125.667801,43.085775],[125.66824,43.085835],[125.66863,43.085645],[125.669216,43.085669],[125.66959,43.085835],[125.669655,43.086132],[125.66998,43.086405],[125.670387,43.086524],[125.670728,43.086749],[125.671216,43.086928],[125.671346,43.087106],[125.671021,43.087129],[125.670744,43.087023],[125.670647,43.086939],[125.670289,43.086856],[125.669931,43.086714],[125.66972,43.086583],[125.66998,43.086868],[125.670761,43.087117],[125.671037,43.08726],[125.67133,43.087331],[125.671151,43.087498],[125.670679,43.087545],[125.670403,43.087616],[125.670191,43.087403],[125.669427,43.087331],[125.669248,43.087248],[125.669476,43.087521],[125.669915,43.08764],[125.67024,43.087806],[125.670078,43.088044],[125.669834,43.088103],[125.669395,43.088008],[125.66933,43.08821],[125.669102,43.088222],[125.668907,43.088175],[125.668874,43.088317],[125.668403,43.088424],[125.667606,43.088756],[125.666565,43.089006],[125.663231,43.090324],[125.66276,43.09055],[125.662369,43.090633],[125.662044,43.090906],[125.661508,43.091203],[125.661199,43.0915],[125.660581,43.091832],[125.659865,43.091369],[125.659621,43.091025],[125.659507,43.090918],[125.659166,43.091013],[125.658662,43.09125],[125.658337,43.0915],[125.658434,43.091844],[125.658776,43.092212],[125.659085,43.092224],[125.659377,43.092284],[125.659166,43.092568],[125.658548,43.092925],[125.658206,43.092842],[125.65793,43.092616],[125.65741,43.092557],[125.656759,43.092984],[125.656661,43.093328],[125.656369,43.093103],[125.656044,43.093412],[125.655556,43.093507],[125.655198,43.093673],[125.655084,43.093792],[125.654824,43.093744],[125.654759,43.093483],[125.654612,43.09321],[125.65419,43.092842],[125.654434,43.092711],[125.654401,43.092426],[125.654043,43.092355],[125.654027,43.092272],[125.653686,43.091975],[125.653799,43.091904],[125.654141,43.091999],[125.654336,43.091987],[125.654385,43.091713],[125.654515,43.091642],[125.6551,43.091535],[125.655312,43.091452],[125.655409,43.091203],[125.655295,43.090894],[125.655344,43.090657],[125.655735,43.090657],[125.655686,43.090372],[125.655377,43.090419],[125.655442,43.090063],[125.655572,43.089849],[125.655377,43.08979],[125.656125,43.08979],[125.656629,43.089968],[125.656727,43.090134],[125.656564,43.090407],[125.656597,43.09074],[125.656743,43.091037],[125.656824,43.091096],[125.657149,43.091072],[125.657344,43.090823],[125.65728,43.090562],[125.657052,43.090383],[125.656905,43.090312],[125.656873,43.090075],[125.65697,43.089885],[125.656873,43.089861],[125.656678,43.089671],[125.656792,43.089481],[125.656401,43.089315],[125.656109,43.08903]]]}},{"type":"Feature","id":"way/585143565","properties":{"building":"yes"},"geometry":{"type":"Polygon","coordinates":[[[125.639247,43.089242],[125.639088,43.088994],[125.639267,43.088933],[125.639426,43.089181],[125.639247,43.089242]]]}},{"type":"Feature","id":"way/585143567","properties":{"landuse":"forest"},"geometry":{"type":"Polygon","coordinates":[[[125.652927,43.093653],[125.652754,43.093646],[125.652617,43.093694],[125.65246,43.09382],[125.652399,43.093991],[125.652221,43.094224],[125.652095,43.094187],[125.652115,43.09405],[125.651993,43.094005],[125.65179,43.09412],[125.651673,43.094013],[125.651734,43.093861],[125.651841,43.093757],[125.651861,43.093664],[125.651993,43.093579],[125.65215,43.093561],[125.652247,43.093427],[125.652424,43.093453],[125.652932,43.093253],[125.653018,43.093327],[125.653297,43.093227],[125.653292,43.093327],[125.652927,43.093653]]]}},{"type":"Feature","id":"way/585240170","properties":{"landuse":"farmland"},"geometry":{"type":"Polygon","coordinates":[[[125.656091,43.087324],[125.656322,43.086959],[125.656533,43.086419],[125.65662,43.086005],[125.656677,43.085571],[125.656668,43.085213],[125.656725,43.084968],[125.656984,43.085473],[125.657676,43.085381],[125.658242,43.085269],[125.658915,43.08508],[125.659625,43.084571],[125.660355,43.084301],[125.660938,43.084671],[125.66154,43.084505],[125.66206,43.084208],[125.66276,43.084184],[125.664093,43.084018],[125.664662,43.083721],[125.665264,43.083459],[125.664924,43.083863],[125.663835,43.084395],[125.662768,43.08487],[125.662419,43.085085],[125.662218,43.08531],[125.661992,43.085765],[125.661696,43.086112],[125.66025,43.086484],[125.659031,43.086464],[125.657504,43.086875],[125.656674,43.087159],[125.656091,43.087324]]]}},{"type":"Feature","id":"way/585240171","properties":{"landuse":"farmland"},"geometry":{"type":"Polygon","coordinates":[[[125.656331,43.087428],[125.656401,43.087699],[125.656515,43.087771],[125.656889,43.087676],[125.657084,43.087474],[125.65754,43.087355],[125.657914,43.087177],[125.658093,43.086963],[125.658115,43.086768],[125.65773,43.086853],[125.657433,43.087019],[125.656331,43.087428]]]}},{"type":"Feature","id":"way/585240172","properties":{"landuse":"farmland"},"geometry":{"type":"Polygon","coordinates":[[[125.660514,43.087326],[125.660727,43.087034],[125.661003,43.086381],[125.661313,43.086277],[125.66128,43.086381],[125.661589,43.086488],[125.661638,43.086714],[125.661556,43.086892],[125.661117,43.087153],[125.660514,43.087326]]]}},{"type":"Feature","id":"way/844558790","properties":{"landuse":"residential"},"geometry":{"type":"Polygon","coordinates":[[[125.620251,43.06696],[125.620744,43.065784],[125.622203,43.065753],[125.623019,43.066489],[125.624886,43.066536],[125.624542,43.06754],[125.620251,43.06696]]]}},{"type":"Feature","id":"way/844558808","properties":{"natural":"wood"},"geometry":{"type":"Polygon","coordinates":[[[125.660119,43.073716],[125.658617,43.069452],[125.659851,43.065353],[125.66101,43.064851],[125.663617,43.064679],[125.665355,43.064428],[125.665344,43.063942],[125.66366,43.064177],[125.66161,43.063997],[125.661406,43.063495],[125.65999,43.063299],[125.66161,43.060352],[125.663048,43.060219],[125.663713,43.060979],[125.664807,43.06072],[125.662222,43.058541],[125.660924,43.058306],[125.661278,43.056895],[125.660237,43.056534],[125.660613,43.055594],[125.661589,43.055735],[125.661771,43.053641],[125.664851,43.055123],[125.670161,43.053712],[125.679474,43.049823],[125.674925,43.046185],[125.688443,43.043614],[125.697155,43.040069],[125.698185,43.035302],[125.703077,43.039881],[125.692949,43.050388],[125.692134,43.053492],[125.694666,43.05412],[125.703378,43.047095],[125.702991,43.070299],[125.694408,43.073434],[125.679002,43.075032],[125.677328,43.070455],[125.675612,43.067885],[125.675654,43.062084],[125.673423,43.06638],[125.673594,43.070205],[125.671921,43.075032],[125.669947,43.075064],[125.669517,43.07102],[125.666642,43.069233],[125.663509,43.074311],[125.660119,43.073716]]]}},{"type":"Feature","id":"way/874406274","properties":{"building":"yes"},"geometry":{"type":"Polygon","coordinates":[[[125.602596,43.100607],[125.602134,43.10063],[125.602145,43.100741],[125.601946,43.100751],[125.601917,43.100446],[125.602073,43.100439],[125.602076,43.100473],[125.602581,43.100448],[125.602596,43.100607]]]}},{"type":"Feature","id":"way/874406275","properties":{"building":"yes"},"geometry":{"type":"Polygon","coordinates":[[[125.60256,43.100912],[125.60208,43.100945],[125.602062,43.100804],[125.602542,43.100771],[125.60256,43.100912]]]}},{"type":"Feature","id":"way/874406276","properties":{"building":"yes"},"geometry":{"type":"Polygon","coordinates":[[[125.601858,43.101002],[125.601124,43.101089],[125.601096,43.100967],[125.601201,43.100955],[125.601211,43.101001],[125.601842,43.100926],[125.601858,43.101002]]]}},{"type":"Feature","id":"way/874406277","properties":{"building":"yes"},"geometry":{"type":"Polygon","coordinates":[[[125.601189,43.10089],[125.60109,43.100902],[125.601024,43.100603],[125.601123,43.100591],[125.601189,43.10089]]]}},{"type":"Feature","id":"way/874406278","properties":{"building":"yes"},"geometry":{"type":"Polygon","coordinates":[[[125.600992,43.10033],[125.600889,43.100341],[125.600817,43.099982],[125.600919,43.099971],[125.600992,43.10033]]]}},{"type":"Feature","id":"way/874406279","properties":{"building":"yes"},"geometry":{"type":"Polygon","coordinates":[[[125.601239,43.099886],[125.601199,43.099929],[125.601266,43.099965],[125.60131,43.099916],[125.601239,43.099886]]]}},{"type":"Feature","id":"way/874406280","properties":{"building":"yes"},"geometry":{"type":"Polygon","coordinates":[[[125.601147,43.099944],[125.601119,43.099978],[125.601073,43.099955],[125.601097,43.099925],[125.601147,43.099944]]]}},{"type":"Feature","id":"way/874406281","properties":{"building":"yes"},"geometry":{"type":"Polygon","coordinates":[[[125.601033,43.099951],[125.60102,43.099975],[125.600982,43.099965],[125.600997,43.099939],[125.601033,43.099951]]]}},{"type":"Feature","id":"way/874406282","properties":{"building":"yes"},"geometry":{"type":"Polygon","coordinates":[[[125.601003,43.100428],[125.600957,43.100433],[125.600949,43.100385],[125.600994,43.10038],[125.601003,43.100428]]]}},{"type":"Feature","id":"way/997097138","properties":{"natural":"water"},"geometry":{"type":"Polygon","coordinates":[[[125.60876,43.13541],[125.609903,43.135637],[125.610128,43.135567],[125.610632,43.135547],[125.610461,43.135206],[125.610032,43.134564],[125.609704,43.134608],[125.609516,43.134557],[125.60934,43.134494],[125.609259,43.134373],[125.609044,43.134279],[125.60876,43.13541]]]}},{"type":"Feature","id":"way/997097142","properties":{"natural":"water"},"geometry":{"type":"Polygon","coordinates":[[[125.65667,43.128391],[125.656922,43.128567],[125.658842,43.12724],[125.658199,43.126327],[125.657877,43.126038],[125.657314,43.12563],[125.657002,43.125564],[125.657115,43.125814],[125.656482,43.126128],[125.656278,43.126042],[125.656144,43.126198],[125.656117,43.126378],[125.656578,43.126907],[125.656777,43.127291],[125.656884,43.127349],[125.656825,43.127987],[125.656772,43.128222],[125.65667,43.128391]]]}},{"type":"Feature","id":"way/997097143","properties":{"natural":"water"},"geometry":{"type":"Polygon","coordinates":[[[125.654057,43.111275],[125.653804,43.112055],[125.653863,43.112097],[125.654029,43.112136],[125.654229,43.112108],[125.654494,43.112184],[125.654752,43.112074],[125.654883,43.111914],[125.654972,43.111767],[125.655023,43.111526],[125.65469,43.111189],[125.654401,43.111317],[125.654057,43.111275]]]}},{"type":"Feature","id":"way/997097144","properties":{"building":"yes"},"geometry":{"type":"Polygon","coordinates":[[[125.650266,43.112336],[125.650254,43.112261],[125.650112,43.112273],[125.650124,43.112347],[125.650266,43.112336]]]}},{"type":"Feature","id":"way/997097145","properties":{"building":"yes"},"geometry":{"type":"Polygon","coordinates":[[[125.646332,43.112474],[125.646834,43.11312],[125.646991,43.113055],[125.646489,43.112409],[125.646332,43.112474]]]}},{"type":"Feature","id":"way/1082667521","properties":{"building":"yes"},"geometry":{"type":"Polygon","coordinates":[[[125.606367,43.127272],[125.606307,43.1269],[125.605687,43.126952],[125.605746,43.127324],[125.606367,43.127272]]]}},{"type":"Feature","id":"way/1082667522","properties":{"building":"yes"},"geometry":{"type":"Polygon","coordinates":[[[125.605733,43.127943],[125.605779,43.128427],[125.606305,43.128401],[125.606259,43.127917],[125.605733,43.127943]]]}},{"type":"Feature","id":"way/1082667523","properties":{"building":"yes"},"geometry":{"type":"Polygon","coordinates":[[[125.606993,43.129727],[125.607065,43.129951],[125.607622,43.129856],[125.60755,43.129632],[125.606993,43.129727]]]}},{"type":"Feature","id":"way/1082667524","properties":{"building":"yes"},"geometry":{"type":"Polygon","coordinates":[[[125.606951,43.129596],[125.607501,43.129503],[125.607439,43.129309],[125.606889,43.129401],[125.606951,43.129596]]]}},{"type":"Feature","id":"way/1082667525","properties":{"building":"yes"},"geometry":{"type":"Polygon","coordinates":[[[125.606841,43.129258],[125.607406,43.129165],[125.607329,43.128915],[125.606764,43.129007],[125.606841,43.129258]]]}},{"type":"Feature","id":"way/1082667540","properties":{"building":"yes"},"geometry":{"type":"Polygon","coordinates":[[[125.62065,43.108984],[125.620479,43.108902],[125.619975,43.10946],[125.620146,43.109543],[125.62065,43.108984]]]}},{"type":"Feature","properties":{"highway":"trunk","name":"抚公线","ref":"G504","osm_way_ids":[229669984,241100013]},"geometry":{"type":"MultiLineString","coordinates":[[[125.59815,43.131853],[125.597149,43.132957],[125.59563,43.134411],[125.593942,43.135767],[125.592492,43.136782],[125.591396,43.137457],[125.589345,43.138579],[125.583803,43.141434],[125.582398,43.142129],[125.581971,43.142192],[125.581574,43.142511],[125.580926,43.142776],[125.5797,43.143154],[125.579197,43.143253],[125.577014,43.143632],[125.575812,43.143761],[125.574598,43.143818],[125.573892,43.143809],[125.572841,43.143753],[125.570815,43.143571],[125.569771,43.143538],[125.568946,43.143565],[125.568132,43.143636],[125.567721,43.143679],[125.566819,43.143837],[125.565494,43.144183],[125.562054,43.145341],[125.560441,43.145834],[125.559616,43.146052],[125.553616,43.147455],[125.552282,43.147837],[125.551252,43.148269],[125.550662,43.148597],[125.549816,43.149192],[125.549078,43.149952],[125.548603,43.15063],[125.546877,43.153524],[125.546498,43.154085],[125.546015,43.154643],[125.545685,43.154983],[125.545048,43.155524],[125.544421,43.155965],[125.543672,43.156415],[125.542504,43.156939],[125.537593,43.158731],[125.536871,43.159071],[125.535867,43.159676],[125.534949,43.160432],[125.534263,43.161085],[125.533769,43.161495],[125.533455,43.161709],[125.532816,43.162069],[125.532219,43.162328],[125.531504,43.162575],[125.529047,43.163138],[125.527971,43.163479],[125.527201,43.16378],[125.526022,43.164362],[125.522873,43.166289],[125.521732,43.166885],[125.520991,43.167211],[125.519645,43.167722],[125.515004,43.169185],[125.514452,43.169386],[125.514007,43.169559],[125.513079,43.169996],[125.512002,43.170616],[125.511033,43.171342],[125.510321,43.172022],[125.509659,43.172743],[125.509124,43.173498],[125.508679,43.174276],[125.507264,43.177539],[125.506593,43.17871],[125.506065,43.179441],[125.505444,43.180148],[125.504366,43.18118]],[[125.707553,43.029937],[125.706276,43.030616],[125.70485,43.031658],[125.704035,43.032128],[125.70321,43.032453],[125.700057,43.033036],[125.699042,43.033294],[125.697909,43.033685],[125.696052,43.034632],[125.695037,43.035327],[125.694049,43.035937],[125.692264,43.036943],[125.69057,43.037735],[125.68746,43.039361],[125.684879,43.040639],[125.684065,43.041001],[125.68263,43.041534],[125.681491,43.041859],[125.676748,43.042907],[125.675487,43.043196],[125.674907,43.04336],[125.673793,43.043719],[125.672629,43.044182],[125.672023,43.044456],[125.67087,43.045062],[125.67035,43.045379],[125.668633,43.046625],[125.662219,43.05182],[125.661783,43.05224],[125.660905,43.053278],[125.66043,43.053949],[125.659962,43.05476],[125.659735,43.05522],[125.659372,43.056187],[125.659119,43.0572],[125.658281,43.06314],[125.657512,43.068813],[125.657451,43.0695],[125.657497,43.070387],[125.657584,43.070796],[125.657836,43.071675],[125.658273,43.072658],[125.658462,43.07318],[125.658633,43.073866],[125.658693,43.07455],[125.65854,43.075672],[125.658185,43.076591],[125.656444,43.07957],[125.656075,43.080324],[125.655875,43.081059],[125.655799,43.081779],[125.655862,43.082433],[125.656463,43.084391],[125.656576,43.085131],[125.656574,43.085544],[125.65642,43.086413],[125.656163,43.087029],[125.65578,43.087678],[125.653459,43.090646],[125.652792,43.091605],[125.652244,43.092532],[125.651241,43.094365],[125.650701,43.095197],[125.649831,43.096249],[125.649049,43.097056],[125.648046,43.09793],[125.647049,43.098678],[125.646148,43.099265],[125.640235,43.102794],[125.638163,43.104083],[125.634335,43.106878],[125.633506,43.107436],[125.632634,43.107947],[125.631392,43.108559],[125.627684,43.110225],[125.626754,43.11068],[125.625566,43.111314],[125.624786,43.11177],[125.62031,43.114639],[125.619325,43.115158],[125.618199,43.115657],[125.617085,43.116076],[125.613314,43.117247],[125.612153,43.117667],[125.611087,43.118159],[125.610477,43.118489],[125.609926,43.118847],[125.607641,43.120591],[125.602851,43.126093],[125.602097,43.126999],[125.600773,43.128694],[125.598735,43.130867],[125.59815,43.131853]]]}},{"type":"Feature","properties":{"highway":"motorway","name":"长长高速","ref":"S1","osm_way_ids":[293247425,339312033]},"geometry":{"type":"MultiLineString","coordinates":[[[125.599264,43.147126],[125.599624,43.146433],[125.599934,43.145658],[125.600307,43.144421],[125.600856,43.142222],[125.601344,43.140841],[125.601607,43.140295],[125.602267,43.139189],[125.603006,43.138199],[125.603939,43.13713],[125.6045,43.13657],[125.605849,43.135471],[125.607276,43.134539],[125.608139,43.134053],[125.608992,43.133623],[125.612904,43.131834],[125.613812,43.131391],[125.616941,43.129638],[125.617813,43.129077],[125.618672,43.128446],[125.619563,43.127713],[125.621062,43.12639],[125.622039,43.12545],[125.629396,43.117771],[125.630359,43.116888],[125.631269,43.116156],[125.632026,43.115605],[125.632941,43.115023],[125.634514,43.114149],[125.635279,43.113802],[125.63606,43.113531],[125.64033,43.112327],[125.641631,43.112065],[125.643924,43.111678],[125.648007,43.111151],[125.652432,43.110308],[125.65568,43.109566],[125.657843,43.109131],[125.659614,43.108814],[125.661227,43.108566],[125.663518,43.108355],[125.666079,43.108193],[125.668881,43.108083],[125.671965,43.107804],[125.67438,43.107455],[125.675242,43.107278],[125.676868,43.106901],[125.678278,43.106528],[125.679433,43.106169],[125.682156,43.105187],[125.683451,43.104634],[125.686828,43.103066],[125.690574,43.101381],[125.695383,43.099111],[125.701086,43.096539],[125.703018,43.095615],[125.705596,43.094271],[125.706873,43.093555],[125.708223,43.092727],[125.710424,43.091283],[125.712339,43.089942],[125.713317,43.089211],[125.713904,43.088718],[125.715767,43.087044],[125.717584,43.085298],[125.718259,43.084607],[125.719331,43.083402],[125.72078,43.08168],[125.721423,43.080775],[125.723318,43.078526],[125.72463,43.077163],[125.725455,43.07637],[125.726215,43.075683],[125.728179,43.074053],[125.730126,43.072662],[125.732901,43.070797],[125.734687,43.069522],[125.73541,43.068935],[125.736429,43.068006],[125.737184,43.067258],[125.738002,43.066362],[125.738631,43.065537],[125.739112,43.064823],[125.739729,43.063802],[125.740836,43.061599],[125.741461,43.060182],[125.742515,43.058199],[125.743281,43.057028],[125.74412,43.05584],[125.745524,43.054218],[125.749297,43.050543],[125.750166,43.049628],[125.751724,43.047731],[125.752502,43.04673],[125.75337,43.045529],[125.754223,43.044187],[125.755497,43.041759],[125.756569,43.039088],[125.757063,43.037581],[125.757392,43.036438],[125.757669,43.035339],[125.757977,43.033752],[125.758151,43.032345],[125.758279,43.030559],[125.758308,43.02897],[125.758287,43.02716],[125.75836,43.025593],[125.758564,43.023857],[125.758825,43.022418],[125.759398,43.020125],[125.75979,43.018977],[125.76068,43.01666],[125.761379,43.015142],[125.761933,43.014132],[125.76412,43.010745],[125.765036,43.009513],[125.766357,43.007882],[125.767712,43.006466],[125.769147,43.0051],[125.776252,42.998825],[125.778097,42.996657],[125.778566,42.996045],[125.780661,42.993015],[125.781336,42.9921],[125.782156,42.991142],[125.783074,42.990212],[125.784035,42.98936]],[[125.784098,42.989457],[125.783182,42.990276],[125.78225,42.991216],[125.781719,42.991822],[125.780541,42.993392],[125.778723,42.99604],[125.777616,42.997459],[125.775984,42.99929],[125.775389,42.999891],[125.77425,43.000947],[125.773295,43.001768],[125.770747,43.003841],[125.769907,43.004572],[125.768215,43.006136],[125.766435,43.007978],[125.765892,43.008621],[125.7642,43.010835],[125.762684,43.013149],[125.761705,43.014796],[125.76089,43.016466],[125.759637,43.01981],[125.759243,43.021199],[125.758843,43.023037],[125.758581,43.02479],[125.758444,43.026397],[125.75845,43.029728],[125.758375,43.031283],[125.758249,43.032731],[125.758041,43.034147],[125.757876,43.034983],[125.757396,43.036938],[125.756897,43.038579],[125.756584,43.039449],[125.755512,43.042027],[125.754305,43.044293],[125.753649,43.045329],[125.752998,43.046268],[125.751719,43.047952],[125.75072,43.049176],[125.749798,43.050222],[125.745847,43.054058],[125.744285,43.055838],[125.743878,43.05638],[125.743136,43.057463],[125.742494,43.058507],[125.741957,43.05949],[125.741639,43.060105],[125.740872,43.061833],[125.739969,43.063603],[125.739532,43.064381],[125.73897,43.065277],[125.738411,43.066047],[125.737927,43.066637],[125.737108,43.067514],[125.736534,43.068065],[125.735501,43.06901],[125.734812,43.06957],[125.732779,43.071016],[125.730105,43.072812],[125.728196,43.074181],[125.726598,43.075507],[125.725621,43.076368],[125.723629,43.078351],[125.721615,43.080729],[125.720737,43.081921],[125.719386,43.083529],[125.718228,43.084827],[125.715708,43.087274],[125.713555,43.089173],[125.712134,43.090242],[125.709238,43.092209],[125.707733,43.093161],[125.705664,43.094357],[125.702516,43.095992],[125.699996,43.097153],[125.698247,43.097912],[125.696164,43.098864],[125.690647,43.101457],[125.687334,43.102937],[125.683182,43.104857],[125.682041,43.105338],[125.679701,43.106185],[125.678532,43.106557],[125.675816,43.107264],[125.674478,43.107536],[125.671535,43.107955],[125.668757,43.108187],[125.666089,43.108289],[125.664401,43.108391],[125.661219,43.108663],[125.659784,43.108882],[125.656653,43.109457],[125.652776,43.110344],[125.650328,43.110836],[125.648438,43.111178],[125.647289,43.111359],[125.644649,43.111666],[125.641027,43.112268],[125.639377,43.112677],[125.635949,43.113664],[125.635301,43.113897],[125.634595,43.11422],[125.633813,43.114627],[125.632431,43.115458],[125.631803,43.11589],[125.63046,43.116948],[125.629308,43.118024],[125.626204,43.121303],[125.622657,43.124995],[125.621712,43.125934],[125.619422,43.12799],[125.618472,43.128745],[125.617932,43.129135],[125.61627,43.130152],[125.61385,43.131486],[125.612698,43.132054],[125.609121,43.133666],[125.608165,43.134153],[125.607207,43.134697],[125.60647,43.135164],[125.605519,43.135863],[125.604956,43.136307],[125.604465,43.136757],[125.60393,43.137297],[125.602792,43.138664],[125.601998,43.139836],[125.6015,43.140783],[125.600992,43.142202],[125.600305,43.144939],[125.600106,43.145563],[125.599647,43.146671],[125.599385,43.147163]]]}},{"type":"Feature","properties":{"highway":"unclassified","osm_way_ids":[438403004,584107413,584107415,585013027,585013029,585013030,585018046,585045169,585048073,585048075,585048077,585048078,585048080,585057775,585057779,585057787,585057789,844558807,844558840,997097136,997097137,997097146,997097147,1082667544,1082667545,1082667546,1082667547]},"geometry":{"type":"MultiLineString","coordinates":[[[125.772881,43.089406],[125.772552,43.089794],[125.772008,43.090264],[125.77152,43.090539],[125.771359,43.090742],[125.771271,43.091039],[125.771134,43.091253],[125.770316,43.092008],[125.769869,43.092687],[125.769525,43.092954],[125.769288,43.093554],[125.768901,43.093803],[125.767643,43.094917],[125.766495,43.095504],[125.765382,43.095987],[125.764062,43.09627],[125.762807,43.096613],[125.762258,43.096973],[125.761628,43.097459],[125.760965,43.098606],[125.760992,43.099147],[125.760839,43.09945],[125.758107,43.098895],[125.75606,43.097817],[125.75256,43.098492],[125.746708,43.098594],[125.745718,43.098589],[125.745623,43.099518],[125.745121,43.101549],[125.741976,43.105353],[125.73912,43.108595],[125.723361,43.105299],[125.722926,43.105269],[125.721623,43.105373],[125.721002,43.105335],[125.719541,43.105072],[125.717764,43.104627],[125.716261,43.104128],[125.714101,43.103316],[125.712203,43.102975],[125.70902,43.102315],[125.707957,43.102183],[125.707619,43.102323],[125.707308,43.102534],[125.705997,43.103872],[125.704936,43.10454],[125.704651,43.104641],[125.702512,43.10487],[125.699346,43.104897],[125.695167,43.104725],[125.69473,43.104445],[125.693082,43.104627],[125.691958,43.104825],[125.690911,43.105119],[125.687194,43.106315],[125.683476,43.107732],[125.68213,43.108145],[125.679441,43.109112],[125.67811,43.109504],[125.676541,43.109835],[125.674973,43.110205],[125.671649,43.110671],[125.666766,43.110296],[125.666225,43.110075],[125.665841,43.109832],[125.664884,43.109426],[125.66387,43.10954],[125.662408,43.110012],[125.662056,43.109996],[125.661789,43.109918],[125.661545,43.10974],[125.661078,43.109561],[125.659726,43.1093],[125.659143,43.109415],[125.658272,43.10971],[125.657905,43.10989],[125.657206,43.110277],[125.656334,43.110967],[125.655836,43.111274],[125.655712,43.111494],[125.655656,43.111714],[125.655718,43.112219],[125.655633,43.112395],[125.6552,43.112743],[125.655028,43.112808],[125.654871,43.112777],[125.654313,43.112343],[125.654108,43.112244],[125.653904,43.112174],[125.653486,43.112161],[125.651665,43.112277],[125.649929,43.11264],[125.649333,43.112703],[125.648526,43.112942],[125.6483,43.112981],[125.648085,43.11297],[125.647923,43.112841],[125.647165,43.112009],[125.646878,43.111871],[125.646579,43.111775],[125.645669,43.111589]],[[125.658633,43.073866],[125.659037,43.0741],[125.659934,43.074874],[125.660152,43.074974],[125.660432,43.07504],[125.661683,43.07498],[125.662381,43.075046],[125.662652,43.075133],[125.662942,43.075271],[125.663785,43.075377],[125.664048,43.07553],[125.664619,43.076013],[125.666512,43.077787],[125.671514,43.082069],[125.671636,43.082229],[125.673029,43.08322],[125.673571,43.083684],[125.67371,43.084076],[125.675645,43.085412],[125.675645,43.085614],[125.675482,43.08581],[125.675238,43.086024],[125.675173,43.086273],[125.675271,43.086499],[125.676352,43.087259]],[[125.671514,43.082069],[125.672126,43.081583],[125.672414,43.081393],[125.673422,43.080895],[125.675064,43.080383],[125.679702,43.078847],[125.680768,43.078553],[125.681537,43.078462],[125.682545,43.078412],[125.683159,43.078342],[125.68387,43.078132],[125.684177,43.078076],[125.684821,43.077774],[125.685483,43.077683],[125.686069,43.077564],[125.686741,43.077346],[125.686847,43.077178],[125.686818,43.076785],[125.686847,43.076519],[125.686933,43.076357],[125.687673,43.07647],[125.692143,43.077374],[125.692663,43.077314],[125.69708,43.076555],[125.698615,43.076334],[125.701878,43.075761],[125.703923,43.075197],[125.70561,43.074669],[125.712082,43.072824],[125.713307,43.072421],[125.716116,43.071607],[125.716398,43.071446],[125.716708,43.071043],[125.716908,43.071018],[125.717397,43.071063],[125.718918,43.071908],[125.71951,43.072291],[125.720722,43.073548],[125.722023,43.075248],[125.723035,43.076646]],[[125.624028,43.072829],[125.620252,43.071241],[125.617739,43.070094],[125.616665,43.069571],[125.616321,43.069456],[125.615336,43.068938],[125.615164,43.068455],[125.614895,43.067987],[125.614703,43.067917],[125.614489,43.067886],[125.614042,43.067937],[125.613484,43.067932],[125.613133,43.067987],[125.612816,43.067952],[125.612279,43.067816],[125.610847,43.067197],[125.609925,43.066881],[125.609539,43.066805],[125.605525,43.067023],[125.600966,43.067192],[125.598351,43.067383],[125.596678,43.067705],[125.596224,43.067861],[125.595934,43.068113],[125.595425,43.068847],[125.595088,43.069435],[125.59484,43.070064],[125.594564,43.070954],[125.594406,43.071261],[125.593711,43.072061],[125.593658,43.072081]],[[125.648046,43.09793],[125.643413,43.096067]],[[125.642211,43.097724],[125.643413,43.096067],[125.644706,43.093964],[125.644309,43.093749],[125.64407,43.093185],[125.642505,43.091728],[125.642188,43.091372],[125.639886,43.089351],[125.63924,43.088829],[125.638967,43.088432],[125.638706,43.088324],[125.638128,43.087703],[125.637788,43.087479],[125.63764,43.087272],[125.63823,43.086047],[125.638151,43.085856],[125.637482,43.085533],[125.637153,43.085318],[125.636518,43.084564],[125.634488,43.082352],[125.634397,43.082104],[125.634329,43.081582],[125.633671,43.080472],[125.6329,43.079495],[125.632741,43.079205],[125.632719,43.078923],[125.632764,43.078592],[125.632526,43.078294],[125.631823,43.077532],[125.631392,43.077283],[125.631052,43.076985],[125.630734,43.076314],[125.629645,43.07619],[125.629543,43.075171],[125.629793,43.074657],[125.629793,43.074384],[125.629691,43.073986],[125.629679,43.073713],[125.629452,43.07329],[125.629178,43.072274]],[[125.626754,43.11068],[125.624218,43.109198],[125.622222,43.108154]],[[125.599736,43.124892],[125.599447,43.125298],[125.599371,43.125361],[125.599265,43.12539],[125.596337,43.123957],[125.59609,43.123907],[125.595986,43.123939],[125.595878,43.124051],[125.59414,43.126222],[125.593986,43.126299],[125.593737,43.126278],[125.592815,43.125927],[125.591826,43.125605],[125.590472,43.125276],[125.589483,43.124855],[125.588887,43.124498],[125.58859,43.124519],[125.588388,43.124631],[125.587927,43.124813],[125.587485,43.124904],[125.585863,43.125451],[125.585575,43.125654],[125.585286,43.125759],[125.584461,43.125878],[125.583385,43.126082]],[[125.695373,43.110937],[125.695125,43.111474],[125.69489,43.111644],[125.694539,43.111827],[125.694147,43.11245],[125.69372,43.113237],[125.693745,43.113432],[125.693996,43.113957],[125.693996,43.114592],[125.693938,43.115257],[125.693754,43.115458],[125.692458,43.115794],[125.692199,43.116136],[125.691379,43.117503],[125.691037,43.117789],[125.69087,43.118186],[125.690092,43.119669],[125.689816,43.119895],[125.68949,43.120017],[125.689281,43.120163],[125.688805,43.120694],[125.688822,43.121158],[125.689081,43.122317],[125.688989,43.122933],[125.688989,43.12325],[125.68878,43.123569],[125.688792,43.123876],[125.689296,43.125759],[125.689577,43.126565],[125.689553,43.126939],[125.68897,43.127879],[125.688997,43.128418],[125.688521,43.129852],[125.688537,43.130425],[125.688253,43.131176],[125.687668,43.132244],[125.686957,43.13336],[125.686414,43.134452],[125.686297,43.134977],[125.686063,43.135513],[125.685561,43.136874],[125.685503,43.137276],[125.685386,43.137679],[125.685344,43.13813],[125.685369,43.138405],[125.685545,43.138984],[125.68567,43.139246],[125.685954,43.139649],[125.686155,43.14068],[125.686213,43.141076],[125.686071,43.14176],[125.686046,43.142272],[125.685896,43.142492],[125.685553,43.142662],[125.684383,43.142882],[125.684132,43.142961],[125.683916,43.143079]],[[125.686595,43.123582],[125.686491,43.123863],[125.686082,43.124527],[125.685394,43.124683],[125.686683,43.125831],[125.687178,43.125931],[125.68789,43.12594],[125.688286,43.125991],[125.688648,43.125991],[125.689296,43.125759]],[[125.674199,43.130539],[125.675583,43.131529],[125.676047,43.131904],[125.676472,43.132502],[125.67664,43.132855],[125.677193,43.13351],[125.677617,43.133828],[125.677854,43.134073],[125.678022,43.134555],[125.67816,43.13475],[125.678614,43.134951],[125.679651,43.135549],[125.680184,43.135924],[125.681813,43.14016],[125.681894,43.141951]],[[125.674199,43.130539],[125.673875,43.130809],[125.673737,43.131075],[125.673096,43.131571]],[[125.66268,43.135391],[125.662285,43.135499],[125.661772,43.135722],[125.660923,43.135902],[125.660617,43.135938]],[[125.602097,43.126999],[125.606081,43.126831],[125.607661,43.126685],[125.608786,43.126626],[125.611612,43.126372],[125.612965,43.126518],[125.613768,43.126567],[125.613849,43.126773],[125.613808,43.127271],[125.613902,43.127437],[125.61425,43.127427],[125.614796,43.127472],[125.615344,43.127584],[125.615785,43.127788],[125.616361,43.128117],[125.616678,43.128138],[125.617811,43.127963],[125.618464,43.127698],[125.619111,43.127575],[125.619938,43.127001],[125.620598,43.126332],[125.620898,43.126223]],[[125.660514,43.157736],[125.660626,43.157109],[125.66029,43.155965],[125.659076,43.154111],[125.658758,43.153989],[125.658553,43.153757],[125.658086,43.152871],[125.657824,43.15219],[125.657488,43.151795],[125.657039,43.151522],[125.656797,43.151127],[125.656498,43.150514],[125.656703,43.149778],[125.656535,43.149383],[125.656516,43.149164],[125.656685,43.148892],[125.657021,43.148619],[125.657731,43.147556],[125.65788,43.147038],[125.658067,43.146711],[125.658422,43.146343],[125.658609,43.145989],[125.659261,43.145562],[125.660028,43.144899],[125.660383,43.144422],[125.660626,43.144013],[125.66128,43.143249],[125.661448,43.142691],[125.661411,43.142132],[125.661485,43.141137],[125.661635,43.140155],[125.661523,43.139787],[125.66113,43.139215],[125.660981,43.138452],[125.66085,43.137197],[125.660617,43.135938]],[[125.618322,43.15688],[125.618343,43.156427],[125.618448,43.156119],[125.618497,43.155713],[125.618477,43.155173],[125.618516,43.154564],[125.618429,43.153576],[125.61817,43.152315],[125.618218,43.152105],[125.618333,43.151909],[125.619303,43.150816],[125.619342,43.150193],[125.619572,43.148827],[125.619409,43.14856],[125.618756,43.148007],[125.618314,43.147012],[125.618391,43.146683],[125.61891,43.145954],[125.61891,43.145625],[125.618804,43.144938],[125.61889,43.144672],[125.61891,43.144343],[125.618756,43.143922],[125.61841,43.143467],[125.618132,43.142962],[125.617988,43.142241],[125.617527,43.141743],[125.616951,43.141148],[125.615817,43.140601],[125.615001,43.13983],[125.614636,43.139361],[125.61407,43.138926],[125.612946,43.138156],[125.61188,43.136467],[125.610862,43.135206],[125.610795,43.134959],[125.610824,43.134571],[125.610513,43.134113],[125.610284,43.133686],[125.61008,43.133492]],[[125.610862,43.135206],[125.610648,43.134953],[125.610081,43.134133],[125.609647,43.133426],[125.609332,43.133103],[125.609179,43.132851],[125.609006,43.13248],[125.608929,43.132129],[125.608966,43.131691]],[[125.605525,43.067023],[125.605713,43.06605],[125.605692,43.065251],[125.605456,43.063887],[125.605155,43.060744],[125.604726,43.059827],[125.60287,43.05684],[125.602537,43.056111],[125.601861,43.055186],[125.601325,43.05332],[125.600853,43.052677],[125.598181,43.049894],[125.597978,43.049455],[125.597956,43.048655],[125.598503,43.047448],[125.598707,43.04595],[125.598879,43.045174],[125.598739,43.043841],[125.598417,43.043465],[125.593472,43.040195],[125.592517,43.03963],[125.592409,43.039434],[125.592442,43.038195],[125.590607,43.036109],[125.588343,43.032604],[125.585704,43.028424],[125.585489,43.027773],[125.585489,43.027333],[125.586787,43.024039],[125.587463,43.023286],[125.589609,43.021678],[125.585173,43.017641]],[[125.605456,43.063887],[125.619306,43.063746],[125.619628,43.065815],[125.620165,43.066411],[125.622976,43.067069],[125.624671,43.067101],[125.631709,43.064765],[125.633211,43.064232],[125.635614,43.061097],[125.637073,43.057726],[125.636537,43.055829],[125.638103,43.051658],[125.640721,43.048773],[125.642159,43.047832],[125.642867,43.046389],[125.642502,43.044398],[125.643532,43.041998],[125.644755,43.040007],[125.645893,43.038391],[125.645871,43.037795],[125.647094,43.036149],[125.648725,43.035553],[125.65042,43.033263],[125.651772,43.030188],[125.655484,43.028134],[125.656836,43.027679],[125.659926,43.026126],[125.660398,43.02553],[125.660677,43.024322],[125.660355,43.023553],[125.660579,43.0229],[125.660934,43.021341],[125.66057,43.019349],[125.661385,43.017827],[125.661664,43.016572],[125.662415,43.015081],[125.662415,43.012524],[125.663209,43.012194],[125.664732,43.012179],[125.665376,43.012006],[125.670547,43.008413],[125.671663,43.007832],[125.673165,43.007785],[125.674796,43.007456],[125.676148,43.007456],[125.677993,43.007785],[125.679324,43.00777],[125.681663,43.008162],[125.682864,43.008256],[125.686834,43.009151],[125.691318,43.010045],[125.69222,43.010798],[125.694065,43.011567],[125.695116,43.012367],[125.695653,43.013167],[125.698786,43.013716],[125.699987,43.014187],[125.703378,43.014987],[125.71357,43.015913],[125.716682,43.017482],[125.72063,43.018721],[125.721767,43.018909],[125.72269,43.019302],[125.723977,43.019129],[125.725837,43.019335]],[[125.609686,43.132973],[125.609336,43.132227],[125.609009,43.131905],[125.608966,43.131691],[125.60898,43.131436],[125.609096,43.130588],[125.60899,43.130342],[125.608798,43.13009],[125.60826,43.129565],[125.608058,43.129298],[125.607847,43.12878],[125.607915,43.128121],[125.607867,43.127714],[125.607703,43.12714],[125.607661,43.126685]],[[125.61008,43.133492],[125.609686,43.132973]],[[125.645378,43.111326],[125.645142,43.111172],[125.644433,43.110855],[125.644519,43.11056],[125.644307,43.109956],[125.643503,43.108981],[125.642738,43.108378],[125.64126,43.107048],[125.639504,43.105074],[125.639083,43.104744],[125.638833,43.104363],[125.638163,43.104083]],[[125.645669,43.111589],[125.645378,43.111326]],[[125.621945,43.107993],[125.620505,43.107195]],[[125.622222,43.108154],[125.621945,43.107993]],[[125.621369,43.126289],[125.621839,43.126367],[125.622339,43.126381],[125.62279,43.12629],[125.62327,43.126121],[125.623626,43.12596],[125.623827,43.125785],[125.626468,43.124692],[125.627351,43.124355],[125.628052,43.124488],[125.628974,43.12472],[125.630366,43.124951]],[[125.620898,43.126223],[125.621369,43.126289]]]}},{"type":"Feature","properties":{"highway":"path","osm_way_ids":[584107406,584107408,584107411,584107431,584107434,585013033,585018050,585018051,585018053,585045158,585048074,585048079,997097167,997097168]},"geometry":{"type":"MultiLineString","coordinates":[[[125.674891,43.071922],[125.674621,43.072079],[125.674092,43.072572],[125.674049,43.07282],[125.674071,43.073501],[125.674178,43.074521],[125.674371,43.075503],[125.674762,43.076699],[125.675085,43.077462],[125.675205,43.077839],[125.675355,43.078642],[125.675351,43.079035],[125.675257,43.079672],[125.675003,43.080099],[125.674677,43.080387],[125.674672,43.080475]],[[125.674068,43.073361],[125.673869,43.073224],[125.673508,43.073105],[125.673482,43.073021]],[[125.674525,43.072158],[125.674178,43.07211],[125.67369,43.072107]],[[125.667221,43.071591],[125.667244,43.071774],[125.666971,43.071944],[125.666596,43.072682],[125.665935,43.074321],[125.665827,43.074862],[125.666023,43.075314]],[[125.666023,43.075314],[125.666232,43.075811],[125.666558,43.076104],[125.66655,43.076178],[125.666453,43.07624]],[[125.648407,43.097632],[125.648931,43.097832],[125.649292,43.09792],[125.649788,43.098106],[125.649935,43.098125],[125.650136,43.098008],[125.650779,43.097421],[125.651636,43.09701],[125.652212,43.097128],[125.652534,43.097088],[125.652975,43.097157],[125.654047,43.097392],[125.654395,43.097568],[125.655226,43.097881],[125.655587,43.098115],[125.655868,43.098448],[125.656484,43.098594],[125.656953,43.098624],[125.657342,43.098702],[125.65773,43.098653],[125.65827,43.098536],[125.658793,43.098634],[125.659194,43.098751],[125.659476,43.098927],[125.659784,43.099445],[125.660279,43.099612],[125.660708,43.099925],[125.662947,43.100957],[125.663684,43.101023],[125.664035,43.101197],[125.664727,43.10094],[125.665045,43.100592],[125.665158,43.099963],[125.665532,43.099681],[125.666224,43.099433],[125.667313,43.098969],[125.667982,43.098721],[125.668356,43.09853],[125.668662,43.098241],[125.668503,43.097454],[125.668243,43.097023],[125.667891,43.096742],[125.667596,43.096427],[125.667354,43.096003],[125.667481,43.095644],[125.66794,43.094998],[125.668209,43.094709],[125.671182,43.093069],[125.671672,43.092757],[125.672163,43.09226],[125.672479,43.092041],[125.673507,43.091613],[125.673713,43.090816],[125.673697,43.090528],[125.674124,43.090135],[125.675026,43.089141],[125.675326,43.088125],[125.675358,43.087802],[125.675279,43.087536],[125.675327,43.087328]],[[125.655938,43.087429],[125.657504,43.086875],[125.659031,43.086464],[125.66025,43.086484],[125.661696,43.086112],[125.662004,43.085751],[125.662218,43.08531],[125.662419,43.085085],[125.662768,43.08487],[125.663424,43.084596],[125.664924,43.083863],[125.665473,43.083438],[125.666464,43.083061],[125.667268,43.082914],[125.667401,43.082855],[125.668942,43.081662],[125.670469,43.081192]],[[125.667268,43.082914],[125.667464,43.082993],[125.667664,43.083144],[125.667877,43.083456],[125.668111,43.083537],[125.668332,43.083521],[125.668435,43.083401],[125.669055,43.083044],[125.669323,43.082963],[125.669653,43.082938],[125.670053,43.082837],[125.670817,43.082531],[125.671375,43.082239],[125.671636,43.082229]],[[125.676352,43.087259],[125.681498,43.09095],[125.681702,43.091239],[125.681895,43.091422],[125.683199,43.092068],[125.683789,43.092299],[125.68414,43.092349],[125.685161,43.092639],[125.685501,43.092854],[125.685808,43.093161],[125.686227,43.093243],[125.686386,43.093459],[125.686386,43.093815],[125.686341,43.094096],[125.686624,43.094353],[125.688824,43.095513],[125.690378,43.096258],[125.691897,43.097194],[125.692748,43.098088],[125.692805,43.098469],[125.692771,43.099198],[125.693009,43.099769],[125.692972,43.099994]],[[125.631886,43.072004],[125.631953,43.07232],[125.632154,43.072477],[125.632355,43.072565],[125.632864,43.072624],[125.633413,43.072761],[125.633627,43.072878],[125.633788,43.073309],[125.634016,43.073543],[125.63427,43.073739],[125.634417,43.073984],[125.634444,43.074179],[125.634766,43.074982],[125.635502,43.076058],[125.635864,43.0764],[125.636735,43.077075],[125.636989,43.077388],[125.63727,43.077633],[125.637618,43.077799]],[[125.681081,43.115889],[125.680824,43.116349],[125.680906,43.116706],[125.680299,43.118646],[125.680707,43.118638],[125.68185,43.119004],[125.682223,43.119183],[125.682351,43.119361],[125.68262,43.119523],[125.683039,43.119574],[125.684054,43.12011],[125.68452,43.120434],[125.686059,43.122289],[125.686351,43.122561],[125.686595,43.123582]],[[125.673096,43.131571],[125.672859,43.131652],[125.672651,43.131803],[125.672444,43.132113],[125.67195,43.132559],[125.671644,43.132567],[125.671407,43.13248],[125.671141,43.13225],[125.670785,43.132034],[125.670548,43.131954],[125.669897,43.131385],[125.66965,43.131349],[125.669413,43.131443],[125.668959,43.131709],[125.668564,43.131803],[125.668149,43.131839],[125.667685,43.131825],[125.66734,43.131918],[125.666807,43.131997],[125.666501,43.1323],[125.666274,43.132898],[125.666056,43.133064],[125.665819,43.133172],[125.665592,43.133474],[125.665227,43.133647],[125.664872,43.133669],[125.664477,43.133828],[125.664299,43.134209],[125.663618,43.134901],[125.66268,43.135391]],[[125.693316,43.100398],[125.69446,43.101549],[125.694846,43.104406],[125.694915,43.104564]],[[125.692972,43.099994],[125.693316,43.100398]]]}},{"type":"Feature","properties":{"highway":"residential","osm_way_ids":[584107436,584107438,584107440,584107442,584107448,584107450,584107453,584107455,584107457,584107459,584107460,584107461,584107463,584107465,585013026,585136041,997097190,997097191,1082667538,1082667539,1082667541,1082667542,1082667543]},"geometry":{"type":"MultiLineString","coordinates":[[[125.665474,43.076814],[125.666453,43.07624]],[[125.665282,43.076064],[125.666681,43.077406]],[[125.666249,43.077532],[125.666681,43.077406],[125.667135,43.077191]],[[125.667429,43.077443],[125.666672,43.076767],[125.666293,43.076321]],[[125.673456,43.083586],[125.673056,43.083855],[125.672493,43.084129],[125.672217,43.084226],[125.671743,43.084331],[125.671491,43.084479],[125.671121,43.084526]],[[125.675277,43.083621],[125.674171,43.083866],[125.67391,43.083981],[125.672597,43.084731],[125.672236,43.084886],[125.672014,43.084926]],[[125.672318,43.084849],[125.67271,43.085232],[125.673433,43.085768]],[[125.672394,43.084464],[125.672609,43.084723]],[[125.672663,43.084689],[125.675271,43.086499]],[[125.673143,43.084433],[125.673748,43.084919],[125.675312,43.085959]],[[125.673996,43.085613],[125.674817,43.084838]],[[125.673696,43.085413],[125.673298,43.085976]],[[125.674989,43.086314],[125.674706,43.086574]],[[125.675358,43.08656],[125.675304,43.086925],[125.675321,43.087181],[125.675274,43.087317]],[[125.601011,43.125454],[125.599736,43.124892],[125.598944,43.124588],[125.598895,43.124511],[125.599285,43.123959],[125.600773,43.122149],[125.600846,43.121941],[125.601131,43.12054],[125.601115,43.120315],[125.600863,43.118564],[125.600391,43.115745],[125.600375,43.115412],[125.60044,43.114581],[125.60044,43.11321],[125.600375,43.112807],[125.599879,43.111709],[125.599066,43.108693],[125.598578,43.107815],[125.598122,43.106829],[125.597846,43.106336],[125.597464,43.106147],[125.595838,43.105565],[125.596008,43.105114],[125.59683,43.101017],[125.596919,43.100899],[125.597106,43.100875],[125.600391,43.101047],[125.600903,43.101029],[125.600993,43.100952],[125.600911,43.100596],[125.600562,43.099978],[125.600342,43.099462],[125.600009,43.098108],[125.59987,43.097218],[125.599773,43.09546],[125.599862,43.094991],[125.600204,43.094231],[125.60035,43.093958],[125.602001,43.092159],[125.602326,43.091975],[125.604131,43.090479],[125.60544,43.088828],[125.606083,43.087854],[125.606887,43.086453],[125.607595,43.085105],[125.608213,43.084422],[125.608571,43.084089],[125.608855,43.083881],[125.609359,43.083287],[125.610221,43.082539],[125.610839,43.081839],[125.61127,43.081197],[125.611547,43.080906],[125.611799,43.080728],[125.612051,43.080651],[125.61275,43.080526],[125.614246,43.080176],[125.615108,43.080033],[125.61584,43.079813],[125.616108,43.079653],[125.616702,43.078655],[125.616962,43.078465],[125.617433,43.078329],[125.617881,43.078299],[125.618092,43.078162],[125.618929,43.077438],[125.619434,43.077081],[125.620068,43.076725],[125.620312,43.076695],[125.621686,43.076707],[125.622296,43.07663],[125.622751,43.076487],[125.622914,43.076309],[125.623068,43.075864],[125.623353,43.074629],[125.624028,43.072829],[125.626385,43.072556],[125.635834,43.071635],[125.636484,43.071469],[125.639306,43.070637],[125.639745,43.070524],[125.64107,43.070263],[125.641355,43.070168],[125.641599,43.069479],[125.642493,43.068534],[125.642721,43.06838],[125.643249,43.068142],[125.643729,43.067988],[125.644867,43.067685],[125.645404,43.067631],[125.646144,43.067376],[125.646428,43.06737],[125.647217,43.067537],[125.647347,43.067489],[125.647445,43.0674],[125.64768,43.066883],[125.647827,43.066717],[125.64803,43.066634],[125.64829,43.066634],[125.649193,43.066735],[125.650567,43.06683],[125.650974,43.066984],[125.651421,43.06702],[125.65325,43.067263],[125.654852,43.067602],[125.65761,43.068127]],[[125.605997,43.087983],[125.604721,43.087693],[125.603933,43.087552],[125.603924,43.087468],[125.60426,43.086739],[125.604241,43.086514],[125.604173,43.086381],[125.604817,43.085413],[125.604999,43.084979],[125.60522,43.084677]],[[125.686683,43.125831],[125.685729,43.126633],[125.684317,43.125411]],[[125.684317,43.125411],[125.685394,43.124683]],[[125.601326,43.125568],[125.601011,43.125454]],[[125.602851,43.126093],[125.601326,43.125568]],[[125.619797,43.106229],[125.62087,43.106774],[125.621932,43.107269],[125.62059,43.108901],[125.619533,43.108322],[125.619404,43.108205]],[[125.618702,43.108893],[125.619328,43.108263],[125.619874,43.107844],[125.62087,43.106774]],[[125.622643,43.104884],[125.621696,43.105559],[125.621619,43.105716],[125.620769,43.106708]]]}},{"type":"Feature","properties":{"name":"伊通河","waterway":"river","osm_way_ids":[585082748]},"geometry":{"type":"MultiLineString","coordinates":[[[125.524471,43.156847],[125.525067,43.156481],[125.525973,43.156243],[125.527063,43.156171],[125.528337,43.156212],[125.530305,43.156398],[125.530191,43.155975],[125.530531,43.155737],[125.531919,43.155303],[125.53281,43.155138],[125.533335,43.154963],[125.53344,43.154823],[125.533533,43.154432],[125.533718,43.154192],[125.533991,43.153972],[125.534352,43.15396],[125.534712,43.154045],[125.535121,43.15432],[125.535362,43.154595],[125.535459,43.15477],[125.535562,43.154836],[125.535684,43.154859],[125.535963,43.154803],[125.536722,43.154356],[125.537127,43.153967],[125.537227,43.153382],[125.537358,43.153201],[125.538487,43.152969],[125.53911,43.15269],[125.539393,43.152277],[125.539592,43.15172],[125.539563,43.151317],[125.539153,43.150955],[125.538855,43.150284],[125.538855,43.149871],[125.539153,43.149262],[125.53928,43.148549],[125.539323,43.147939],[125.539521,43.14732],[125.539776,43.146917],[125.540158,43.146628],[125.540724,43.146431],[125.541163,43.146421],[125.541573,43.146184],[125.541998,43.145688],[125.54231,43.145244],[125.542253,43.144768],[125.541998,43.14451],[125.541956,43.144014],[125.542225,43.143725],[125.542522,43.143539],[125.543003,43.143529],[125.543555,43.143663],[125.544009,43.143684],[125.544759,43.143488],[125.545495,43.143033],[125.546047,43.142744],[125.546585,43.142114],[125.54684,43.14168],[125.546995,43.141504],[125.547208,43.141411],[125.547887,43.141525],[125.54936,43.142413],[125.549926,43.142393],[125.550775,43.142083],[125.551441,43.142186],[125.551625,43.142486],[125.551625,43.14293],[125.551936,43.143343],[125.552474,43.143581],[125.55304,43.143529],[125.553904,43.14325],[125.555504,43.14295],[125.556183,43.142641],[125.556849,43.142155],[125.557599,43.141887],[125.558392,43.141763],[125.558915,43.141649],[125.559496,43.14138],[125.56094,43.140874],[125.561421,43.14064],[125.562667,43.140223],[125.563729,43.139686],[125.564451,43.139387],[125.56513,43.13919],[125.565725,43.13919],[125.566886,43.13887],[125.567396,43.13885],[125.568769,43.139087],[125.57051,43.139025],[125.571147,43.139159],[125.571563,43.139203],[125.571858,43.139074],[125.572108,43.13906],[125.572392,43.139195],[125.572761,43.139242],[125.573261,43.139469],[125.573631,43.139934],[125.574245,43.139995],[125.574828,43.139893],[125.575366,43.139573],[125.576003,43.139294],[125.576753,43.139418],[125.577022,43.139717],[125.577758,43.139872],[125.578891,43.139066],[125.579769,43.138932],[125.582359,43.1395],[125.58335,43.139263],[125.585162,43.138395],[125.585332,43.137672],[125.585629,43.136928],[125.586153,43.136474],[125.586918,43.136009],[125.587243,43.135637],[125.587866,43.135089],[125.588588,43.134356],[125.589253,43.133984],[125.589523,43.133643],[125.589947,43.133302],[125.590542,43.132951],[125.590938,43.132537],[125.591986,43.130812],[125.592595,43.130275],[125.593048,43.129924],[125.593656,43.129717],[125.594562,43.129252],[125.595242,43.128994],[125.59595,43.128797],[125.596629,43.128766],[125.597252,43.128859],[125.598371,43.128901],[125.598979,43.128611],[125.599376,43.128312],[125.599441,43.127328],[125.600683,43.126086],[125.601106,43.125557],[125.601633,43.124789],[125.602759,43.123766],[125.602798,43.123418],[125.602405,43.122598],[125.602561,43.122257],[125.602858,43.121968],[125.603226,43.121792],[125.604401,43.121771],[125.604783,43.121306],[125.605307,43.120242],[125.60685,43.119364],[125.607431,43.118568],[125.607813,43.118186],[125.608592,43.117917],[125.609413,43.117803],[125.609993,43.117545],[125.610857,43.117039],[125.611338,43.116894],[125.611834,43.116667],[125.612117,43.11646],[125.61349,43.116367],[125.613943,43.116181],[125.614835,43.115737],[125.615528,43.11522],[125.615967,43.114951],[125.617128,43.114114],[125.617893,43.113804],[125.618501,43.113494],[125.619054,43.11276],[125.619662,43.112264],[125.6202,43.110745],[125.620597,43.110166],[125.621149,43.109505],[125.621928,43.108135],[125.622636,43.107768],[125.623867,43.107417],[125.62473,43.107221],[125.627264,43.106869],[125.628609,43.106404],[125.628963,43.106084],[125.629204,43.10566],[125.62919,43.105061],[125.62943,43.104968],[125.629784,43.105154],[125.629912,43.105402],[125.63028,43.105443],[125.630521,43.105174],[125.630634,43.104875],[125.631101,43.104461],[125.631441,43.104234],[125.631993,43.103738],[125.632559,43.103634],[125.633026,43.103583],[125.634357,43.103531],[125.63515,43.103293],[125.635645,43.102973],[125.635886,43.102673],[125.636523,43.102559],[125.637118,43.102384],[125.6375,43.102104],[125.638349,43.102011],[125.638958,43.10198],[125.639793,43.101484],[125.64043,43.101246],[125.641803,43.100595],[125.642412,43.100213],[125.643007,43.099934],[125.643517,43.099644],[125.643686,43.099252],[125.644423,43.098766],[125.645329,43.098032],[125.645456,43.097753],[125.64564,43.097546],[125.646617,43.096543],[125.647013,43.096181],[125.647311,43.095819],[125.647537,43.095396],[125.64966,43.093979],[125.650269,43.093359],[125.650397,43.092997],[125.651005,43.092387],[125.651133,43.091963],[125.651388,43.091705],[125.651572,43.091416],[125.651614,43.091219],[125.651572,43.09093],[125.651812,43.090599],[125.652096,43.089937],[125.65218,43.089596],[125.652393,43.089182],[125.652393,43.089017],[125.65252,43.088914],[125.652506,43.088635],[125.652676,43.08849],[125.652648,43.088169],[125.652959,43.088107],[125.653115,43.087963],[125.653186,43.087838],[125.653455,43.087756],[125.653582,43.08757],[125.653908,43.087363],[125.653993,43.087125],[125.654247,43.086887],[125.654587,43.086815],[125.654658,43.086577],[125.655026,43.086226],[125.655097,43.085905],[125.655238,43.085802],[125.65562,43.085698],[125.655507,43.085543],[125.655366,43.085233],[125.655125,43.084602],[125.655168,43.084096],[125.655111,43.083848],[125.655139,43.083713],[125.655026,43.083527],[125.655139,43.083238],[125.655083,43.08301],[125.655168,43.082617]]]}}],"license":"https://opendatacommons.org/licenses/odbl/1-0/","attribution":"© OpenStreetMap contributors"}