{"type":"FeatureCollection","bbox":[124.235,43.976,124.321,44.042],"features":[{"type":"Feature","id":"node/6441989253","properties":{"place":"town","name":"前进乡"},"geometry":{"type":"Point","coordinates":[124.269731,44.03349]}},{"type":"Feature","id":"way/687294779","properties":{"landuse":"residential"},"geometry":{"type":"Polygon","coordinates":[[[124.274201,44.03404],[124.266414,44.031809],[124.267776,44.028892],[124.266169,44.028422],[124.265353,44.029969],[124.263964,44.029518],[124.264754,44.028148],[124.264073,44.027522],[124.261623,44.026699],[124.261323,44.027071],[124.259581,44.026562],[124.259717,44.025995],[124.258111,44.024801],[124.256341,44.024507],[124.252965,44.023254],[124.252175,44.02388],[124.252584,44.024174],[124.252284,44.024957],[124.253863,44.025427],[124.254571,44.026386],[124.256858,44.02713],[124.256994,44.027991],[124.257947,44.028461],[124.257539,44.029773],[124.261187,44.030908],[124.265244,44.033277],[124.273711,44.035312],[124.272404,44.037739],[124.273303,44.038052],[124.274855,44.035351],[124.276488,44.035723],[124.276815,44.034999],[124.27951,44.035743],[124.279674,44.03541],[124.275372,44.034295],[124.277904,44.030066],[124.278857,44.030164],[124.278993,44.029792],[124.281743,44.030556],[124.282777,44.02989],[124.279047,44.028931],[124.278911,44.028324],[124.273493,44.026328],[124.272758,44.027659],[124.276842,44.029792],[124.274201,44.03404]]]}},{"type":"Feature","properties":{"highway":"tertiary","osm_way_ids":[548729678,548729679,548729680,548730308,573251899,573251901,573251902]},"geometry":{"type":"MultiLineString","coordinates":[[[124.310115,43.986469],[124.308828,43.988121],[124.30871,43.988137],[124.305518,43.986716],[124.304123,43.986137],[124.301366,43.985072],[124.300352,43.984752],[124.29885,43.984343],[124.298641,43.984331],[124.295282,43.98481],[124.291152,43.985335],[124.29076,43.985254],[124.286699,43.984154],[124.286544,43.984049],[124.283829,43.981351],[124.281061,43.978645],[124.280873,43.978495],[124.273964,43.975082],[124.270579,43.97336],[124.266883,43.970677],[124.26411,43.968727],[124.258434,43.966229],[124.255055,43.96482]],[[124.310287,43.986246],[124.310115,43.986469]],[[124.319341,43.973991],[124.315968,43.978626],[124.31107,43.98525],[124.310287,43.986246]],[[124.316268,44.000641],[124.317024,44.000895],[124.317164,44.000868],[124.317775,44.0001],[124.318027,43.999931],[124.319846,43.999136],[124.320291,43.99902],[124.320517,43.999004],[124.32726,44.001397],[124.327689,44.001451],[124.328155,44.001405],[124.328306,44.001451],[124.330108,44.002462],[124.330205,44.002443],[124.330409,44.002485],[124.336433,44.004658]],[[124.252421,44.028371],[124.250629,44.027831],[124.250312,44.0278],[124.243135,44.029031],[124.226709,44.031993],[124.224751,44.032278],[124.224493,44.032205],[124.21531,44.027704],[124.21362,44.026983],[124.211099,44.025251],[124.20715,44.02247],[124.203449,44.019781],[124.202467,44.019114],[124.202483,44.018959],[124.203771,44.017547],[124.203803,44.017443],[124.203782,44.017328],[124.196684,44.013659],[124.188369,44.009473],[124.178306,44.004349],[124.178301,44.004218],[124.179545,44.002925],[124.179567,44.002821],[124.176831,43.997523],[124.175205,43.994223],[124.175055,43.994034],[124.173113,43.992606],[124.172244,43.991514],[124.168468,43.986396],[124.167824,43.985624],[124.16652,43.983876],[124.166606,43.983729],[124.171002,43.981031]],[[124.221243,44.00869],[124.221854,44.007787],[124.222375,44.007324],[124.223812,44.008157],[124.224166,44.007864],[124.227841,44.009473],[124.230405,44.011695],[124.233736,44.013593],[124.23497,44.014234],[124.238591,44.016305],[124.239605,44.017019],[124.241756,44.01825],[124.242797,44.018693],[124.244304,44.0195],[124.246364,44.020684],[124.254974,44.024637]],[[124.376843,44.060129],[124.376693,44.060133],[124.374955,44.059701],[124.373501,44.059412],[124.371623,44.059181],[124.37135,44.059261],[124.370508,44.059782],[124.370315,44.059847],[124.369692,44.059801],[124.358604,44.058514],[124.358207,44.058398],[124.35789,44.058178],[124.355712,44.056023],[124.355182,44.055572],[124.349238,44.052407],[124.342296,44.048852],[124.341942,44.048756],[124.341448,44.048744],[124.340966,44.048787],[124.340617,44.048868],[124.340145,44.049107],[124.33794,44.051285],[124.337484,44.051455],[124.337001,44.051566],[124.336492,44.051543],[124.336009,44.051482],[124.319524,44.046789],[124.306472,44.043157],[124.291517,44.039077],[124.281195,44.036301],[124.272816,44.034095],[124.265692,44.032151],[124.262173,44.030315],[124.261047,44.029204],[124.258922,44.027345],[124.257334,44.025671],[124.256905,44.025417],[124.254974,44.024637],[124.252421,44.028371],[124.245189,44.037882],[124.240544,44.042532],[124.232508,44.051046],[124.232079,44.051354],[124.231167,44.051786],[124.230309,44.052241],[124.229761,44.052596],[124.221082,44.059782],[124.216758,44.063259],[124.200547,44.076718],[124.198412,44.078553],[124.197682,44.079061],[124.19677,44.079485],[124.192522,44.081104],[124.184024,44.083192],[124.182801,44.083832],[124.180055,44.085774],[124.17351,44.090074],[124.17027,44.091199],[124.164938,44.093596],[124.153814,44.098483]]]}},{"type":"Feature","properties":{"highway":"tertiary","ref":"C163","osm_way_ids":[1548030946]},"geometry":{"type":"MultiLineString","coordinates":[[[124.236236,43.97719],[124.217714,43.968474]]]}}],"license":"https://opendatacommons.org/licenses/odbl/1-0/","attribution":"© OpenStreetMap contributors"}